{"type":"FeatureCollection","features":[{"type":"Feature","properties":{"class":1},"geometry":{"type":"Polygon","coordinates":[[[161.0,597.0],[168.0,613.0],[172.0,614.0],[172.0,617.0],[168.0,616.0],[166.0,627.0],[168.0,628.0],[173.0,623.0],[176.0,606.0],[188.0,602.0],[188.0,599.0],[161.0,597.0]]]}},{"type":"Feature","properties":{"class":1},"geometry":{"type":"Polygon","coordinates":[[[231.0,724.0],[225.0,730.0],[215.0,727.0],[214.0,731.0],[209.0,732.0],[216.0,732.0],[223.0,738.0],[224.0,735.0],[221.0,734.0],[224.0,733.0],[226.0,737.0],[230.0,734.0],[233.0,739.0],[236.0,729.0],[231.0,724.0]]]}},{"type":"Feature","properties":{"class":1},"geometry":{"type":"Polygon","coordinates":[[[575.0,996.0],[572.0,1010.0],[568.0,1013.0],[556.0,1013.0],[553.0,1023.0],[549.0,1020.0],[540.0,1022.0],[520.0,1011.0],[519.0,1013.0],[536.0,1026.0],[553.0,1032.0],[554.0,1040.0],[548.0,1040.0],[547.0,1045.0],[558.0,1044.0],[559.0,1048.0],[556.0,1049.0],[564.0,1048.0],[560.0,1047.0],[562.0,1038.0],[572.0,1040.0],[582.0,1034.0],[599.0,1037.0],[603.0,1044.0],[609.0,1046.0],[598.0,1036.0],[596.0,1021.0],[592.0,1017.0],[588.0,1018.0],[582.0,1007.0],[581.0,1014.0],[577.0,1012.0],[580.0,1003.0],[575.0,999.0],[580.0,1000.0],[580.0,997.0],[575.0,996.0]]]}},{"type":"Feature","properties":{"class":1},"geometry":{"type":"Polygon","coordinates":[[[121.0,974.0],[117.0,977.0],[122.0,978.0],[124.0,983.0],[118.0,980.0],[111.0,981.0],[107.0,985.0],[105.0,982.0],[103.0,988.0],[107.0,993.0],[112.0,995.0],[112.0,982.0],[115.0,982.0],[114.0,989.0],[118.0,990.0],[119.0,994.0],[127.0,988.0],[125.0,984.0],[131.0,984.0],[135.0,1000.0],[146.0,1001.0],[145.0,996.0],[150.0,990.0],[147.0,981.0],[144.0,978.0],[138.0,981.0],[135.0,975.0],[132.0,978.0],[130.0,977.0],[125.0,978.0],[121.0,974.0]]]}},{"type":"Feature","properties":{"class":1},"geometry":{"type":"Polygon","coordinates":[[[93.0,808.0],[81.0,816.0],[91.0,812.0],[92.0,819.0],[88.0,817.0],[86.0,821.0],[92.0,825.0],[93.0,834.0],[104.0,835.0],[108.0,822.0],[104.0,823.0],[106.0,819.0],[101.0,819.0],[98.0,809.0],[93.0,808.0]]]}},{"type":"Feature","properties":{"class":1},"geometry":{"type":"Polygon","coordinates":[[[132.0,570.0],[133.0,575.0],[130.0,579.0],[123.0,580.0],[123.0,587.0],[126.0,589.0],[132.0,588.0],[132.0,584.0],[136.0,586.0],[138.0,575.0],[132.0,570.0]]]}},{"type":"Feature","properties":{"class":1},"geometry":{"type":"Polygon","coordinates":[[[45.0,534.0],[41.0,542.0],[52.0,541.0],[53.0,546.0],[59.0,546.0],[58.0,548.0],[65.0,545.0],[62.0,538.0],[57.0,542.0],[56.0,538.0],[45.0,534.0]]]}},{"type":"Feature","properties":{"class":1},"geometry":{"type":"Polygon","coordinates":[[[1008.0,156.0],[1004.0,165.0],[997.0,171.0],[1003.0,185.0],[1010.0,183.0],[1006.0,187.0],[1006.0,192.0],[1021.0,192.0],[1019.0,203.0],[1023.0,202.0],[1023.0,199.0],[1028.0,200.0],[1025.0,195.0],[1031.0,193.0],[1033.0,197.0],[1032.0,193.0],[1046.0,184.0],[1046.0,188.0],[1054.0,187.0],[1058.0,191.0],[1056.0,179.0],[1051.0,177.0],[1051.0,172.0],[1048.0,172.0],[1047.0,176.0],[1047.0,173.0],[1026.0,170.0],[1008.0,156.0]]]}},{"type":"Feature","properties":{"class":1},"geometry":{"type":"Polygon","coordinates":[[[1053.0,163.0],[1056.0,167.0],[1056.0,186.0],[1058.0,182.0],[1061.0,189.0],[1067.0,192.0],[1064.0,194.0],[1068.0,199.0],[1077.0,199.0],[1078.0,204.0],[1085.0,206.0],[1087.0,202.0],[1081.0,198.0],[1082.0,194.0],[1074.0,189.0],[1074.0,180.0],[1070.0,178.0],[1066.0,163.0],[1061.0,164.0],[1060.0,169.0],[1053.0,163.0]]]}},{"type":"Feature","properties":{"class":1},"geometry":{"type":"Polygon","coordinates":[[[1118.0,217.0],[1117.0,225.0],[1120.0,228.0],[1120.0,235.0],[1129.0,239.0],[1128.0,242.0],[1123.0,242.0],[1124.0,246.0],[1121.0,249.0],[1126.0,258.0],[1127.0,255.0],[1133.0,254.0],[1131.0,245.0],[1135.0,240.0],[1130.0,240.0],[1126.0,222.0],[1119.0,221.0],[1121.0,217.0],[1118.0,217.0]]]}},{"type":"Feature","properties":{"class":1},"geometry":{"type":"Polygon","coordinates":[[[1078.0,226.0],[1064.0,233.0],[1071.0,250.0],[1088.0,243.0],[1081.0,238.0],[1078.0,226.0]]]}},{"type":"Feature","properties":{"class":1},"geometry":{"type":"Polygon","coordinates":[[[1631.0,707.0],[1625.0,717.0],[1619.0,716.0],[1617.0,722.0],[1611.0,722.0],[1607.0,718.0],[1591.0,725.0],[1586.0,720.0],[1582.0,722.0],[1588.0,727.0],[1586.0,726.0],[1581.0,727.0],[1594.0,730.0],[1586.0,732.0],[1590.0,734.0],[1593.0,746.0],[1598.0,745.0],[1597.0,739.0],[1598.0,742.0],[1603.0,742.0],[1611.0,735.0],[1609.0,732.0],[1599.0,736.0],[1599.0,729.0],[1617.0,729.0],[1616.0,738.0],[1618.0,735.0],[1623.0,738.0],[1626.0,746.0],[1631.0,746.0],[1632.0,749.0],[1636.0,747.0],[1636.0,730.0],[1633.0,727.0],[1636.0,726.0],[1636.0,720.0],[1633.0,724.0],[1628.0,719.0],[1636.0,717.0],[1636.0,708.0],[1631.0,707.0]]]}},{"type":"Feature","properties":{"class":1},"geometry":{"type":"Polygon","coordinates":[[[1297.0,549.0],[1292.0,557.0],[1298.0,563.0],[1301.0,573.0],[1292.0,569.0],[1292.0,558.0],[1284.0,556.0],[1287.0,561.0],[1286.0,567.0],[1291.0,570.0],[1295.0,582.0],[1316.0,586.0],[1318.0,583.0],[1315.0,578.0],[1320.0,576.0],[1325.0,579.0],[1326.0,593.0],[1330.0,590.0],[1334.0,592.0],[1333.0,589.0],[1328.0,589.0],[1331.0,578.0],[1327.0,578.0],[1326.0,572.0],[1320.0,574.0],[1319.0,569.0],[1307.0,570.0],[1301.0,566.0],[1306.0,553.0],[1301.0,552.0],[1303.0,558.0],[1298.0,559.0],[1300.0,553.0],[1297.0,551.0],[1305.0,549.0],[1297.0,549.0]]]}},{"type":"Feature","properties":{"class":1},"geometry":{"type":"Polygon","coordinates":[[[1556.0,77.0],[1548.0,81.0],[1550.0,85.0],[1559.0,84.0],[1555.0,89.0],[1544.0,85.0],[1543.0,82.0],[1537.0,82.0],[1536.0,89.0],[1547.0,97.0],[1563.0,103.0],[1565.0,91.0],[1560.0,93.0],[1562.0,80.0],[1556.0,77.0]]]}},{"type":"Feature","properties":{"class":1},"geometry":{"type":"Polygon","coordinates":[[[1402.0,9.0],[1398.0,10.0],[1396.0,15.0],[1397.0,34.0],[1419.0,40.0],[1416.0,29.0],[1408.0,23.0],[1409.0,17.0],[1402.0,23.0],[1405.0,16.0],[1402.0,9.0]]]}},{"type":"Feature","properties":{"class":1},"geometry":{"type":"Polygon","coordinates":[[[957.0,22.0],[951.0,23.0],[953.0,29.0],[949.0,28.0],[950.0,24.0],[947.0,23.0],[941.0,31.0],[966.0,40.0],[971.0,45.0],[972.0,53.0],[980.0,57.0],[982.0,35.0],[963.0,34.0],[962.0,24.0],[958.0,27.0],[957.0,22.0]]]}},{"type":"Feature","properties":{"class":1},"geometry":{"type":"Polygon","coordinates":[[[759.0,25.0],[759.0,29.0],[754.0,30.0],[755.0,34.0],[750.0,34.0],[749.0,37.0],[749.0,42.0],[752.0,44.0],[752.0,48.0],[748.0,49.0],[750.0,65.0],[772.0,60.0],[783.0,67.0],[790.0,65.0],[791.0,60.0],[782.0,61.0],[779.0,58.0],[788.0,57.0],[781.0,51.0],[780.0,46.0],[770.0,44.0],[773.0,39.0],[777.0,41.0],[777.0,35.0],[769.0,32.0],[770.0,39.0],[767.0,39.0],[768.0,44.0],[765.0,44.0],[763.0,40.0],[766.0,35.0],[761.0,35.0],[763.0,28.0],[759.0,25.0]]]}},{"type":"Feature","properties":{"class":1},"geometry":{"type":"Polygon","coordinates":[[[741.0,108.0],[743.0,117.0],[734.0,125.0],[734.0,131.0],[719.0,121.0],[715.0,123.0],[715.0,130.0],[721.0,138.0],[721.0,147.0],[722.0,144.0],[726.0,147.0],[736.0,139.0],[741.0,140.0],[740.0,144.0],[733.0,145.0],[735.0,148.0],[732.0,150.0],[735.0,150.0],[735.0,153.0],[746.0,147.0],[748.0,142.0],[754.0,144.0],[745.0,127.0],[746.0,109.0],[741.0,108.0]]]}},{"type":"Feature","properties":{"class":1},"geometry":{"type":"Polygon","coordinates":[[[651.0,770.0],[648.0,778.0],[662.0,779.0],[655.0,770.0],[651.0,770.0]]]}},{"type":"Feature","properties":{"class":1},"geometry":{"type":"Polygon","coordinates":[[[746.0,802.0],[748.0,818.0],[759.0,819.0],[755.0,813.0],[765.0,813.0],[760.0,806.0],[756.0,807.0],[755.0,803.0],[746.0,802.0]]]}},{"type":"Feature","properties":{"class":1},"geometry":{"type":"Polygon","coordinates":[[[920.0,843.0],[910.0,848.0],[902.0,848.0],[900.0,853.0],[901.0,867.0],[904.0,862.0],[903.0,855.0],[910.0,853.0],[914.0,863.0],[910.0,867.0],[913.0,871.0],[920.0,871.0],[916.0,874.0],[919.0,881.0],[912.0,881.0],[911.0,883.0],[925.0,880.0],[939.0,880.0],[940.0,883.0],[945.0,879.0],[950.0,881.0],[948.0,873.0],[952.0,869.0],[946.0,867.0],[944.0,862.0],[928.0,858.0],[925.0,869.0],[916.0,866.0],[916.0,858.0],[922.0,853.0],[919.0,849.0],[920.0,843.0]]]}},{"type":"Feature","properties":{"class":1},"geometry":{"type":"Polygon","coordinates":[[[941.0,1069.0],[940.0,1072.0],[947.0,1076.0],[948.0,1088.0],[959.0,1088.0],[960.0,1084.0],[963.0,1084.0],[960.0,1088.0],[981.0,1088.0],[981.0,1083.0],[985.0,1079.0],[985.0,1075.0],[981.0,1075.0],[974.0,1087.0],[978.0,1078.0],[952.0,1082.0],[945.0,1069.0],[941.0,1069.0]]]}},{"type":"Feature","properties":{"class":1},"geometry":{"type":"Polygon","coordinates":[[[265.0,657.0],[265.0,668.0],[258.0,667.0],[263.0,679.0],[275.0,671.0],[279.0,662.0],[269.0,661.0],[265.0,657.0]]]}},{"type":"Feature","properties":{"class":1},"geometry":{"type":"Polygon","coordinates":[[[118.0,677.0],[115.0,680.0],[118.0,681.0],[116.0,685.0],[112.0,683.0],[106.0,690.0],[110.0,694.0],[107.0,697.0],[110.0,698.0],[104.0,699.0],[105.0,709.0],[97.0,714.0],[100.0,717.0],[89.0,720.0],[89.0,723.0],[97.0,725.0],[97.0,735.0],[104.0,743.0],[98.0,745.0],[104.0,746.0],[102.0,748.0],[89.0,749.0],[91.0,754.0],[99.0,753.0],[102.0,749.0],[121.0,741.0],[110.0,732.0],[109.0,727.0],[113.0,725.0],[111.0,718.0],[104.0,718.0],[107.0,713.0],[113.0,718.0],[124.0,717.0],[126.0,714.0],[119.0,708.0],[122.0,703.0],[111.0,702.0],[111.0,693.0],[114.0,689.0],[118.0,690.0],[123.0,682.0],[122.0,678.0],[118.0,677.0]]]}},{"type":"Feature","properties":{"class":1},"geometry":{"type":"Polygon","coordinates":[[[435.0,1021.0],[431.0,1026.0],[431.0,1050.0],[441.0,1050.0],[447.0,1054.0],[448.0,1051.0],[452.0,1051.0],[452.0,1057.0],[455.0,1054.0],[462.0,1055.0],[462.0,1065.0],[468.0,1063.0],[468.0,1066.0],[464.0,1067.0],[464.0,1077.0],[475.0,1075.0],[478.0,1066.0],[481.0,1068.0],[481.0,1063.0],[486.0,1060.0],[485.0,1056.0],[471.0,1054.0],[468.0,1050.0],[458.0,1047.0],[443.0,1036.0],[435.0,1021.0]]]}},{"type":"Feature","properties":{"class":1},"geometry":{"type":"Polygon","coordinates":[[[825.0,1053.0],[818.0,1057.0],[821.0,1065.0],[829.0,1065.0],[829.0,1070.0],[845.0,1076.0],[845.0,1079.0],[849.0,1079.0],[846.0,1082.0],[852.0,1083.0],[850.0,1086.0],[853.0,1086.0],[853.0,1081.0],[857.0,1082.0],[857.0,1073.0],[856.0,1074.0],[854.0,1073.0],[855.0,1072.0],[859.0,1073.0],[858.0,1068.0],[853.0,1065.0],[853.0,1069.0],[850.0,1069.0],[850.0,1065.0],[842.0,1059.0],[835.0,1061.0],[834.0,1053.0],[825.0,1053.0]]]}},{"type":"Feature","properties":{"class":1},"geometry":{"type":"Polygon","coordinates":[[[775.0,990.0],[775.0,994.0],[770.0,996.0],[776.0,1001.0],[783.0,1002.0],[781.0,1012.0],[785.0,1012.0],[785.0,1009.0],[792.0,1011.0],[791.0,1001.0],[776.0,998.0],[783.0,997.0],[786.0,992.0],[781.0,995.0],[775.0,990.0]]]}},{"type":"Feature","properties":{"class":2},"geometry":{"type":"Polygon","coordinates":[[[596.0,587.0],[570.0,591.0],[566.0,588.0],[566.0,591.0],[557.0,594.0],[551.0,590.0],[547.0,592.0],[544.0,588.0],[539.0,592.0],[539.0,596.0],[547.0,596.0],[549.0,600.0],[542.0,599.0],[538.0,603.0],[547.0,601.0],[547.0,607.0],[551.0,607.0],[552.0,598.0],[549.0,594.0],[555.0,595.0],[559.0,605.0],[557.0,607.0],[563.0,609.0],[571.0,619.0],[578.0,620.0],[591.0,630.0],[592.0,634.0],[597.0,635.0],[597.0,639.0],[604.0,640.0],[605.0,645.0],[614.0,649.0],[627.0,662.0],[631.0,660.0],[633.0,653.0],[645.0,647.0],[650.0,640.0],[664.0,631.0],[636.0,604.0],[626.0,601.0],[624.0,597.0],[620.0,598.0],[617.0,593.0],[596.0,587.0]]]}},{"type":"Feature","properties":{"class":2},"geometry":{"type":"Polygon","coordinates":[[[603.0,663.0],[600.0,665.0],[599.0,670.0],[594.0,670.0],[594.0,673.0],[589.0,669.0],[584.0,676.0],[579.0,676.0],[578.0,671.0],[573.0,683.0],[568.0,682.0],[567.0,685.0],[573.0,686.0],[572.0,689.0],[579.0,691.0],[579.0,695.0],[584.0,692.0],[588.0,696.0],[587.0,684.0],[591.0,678.0],[596.0,678.0],[593.0,681.0],[595.0,684.0],[599.0,683.0],[600.0,687.0],[598.0,693.0],[593.0,695.0],[605.0,696.0],[606.0,691.0],[613.0,690.0],[613.0,683.0],[610.0,682.0],[610.0,677.0],[607.0,676.0],[607.0,669.0],[600.0,669.0],[604.0,667.0],[603.0,663.0]]]}},{"type":"Feature","properties":{"class":2},"geometry":{"type":"Polygon","coordinates":[[[574.0,718.0],[571.0,724.0],[575.0,725.0],[576.0,728.0],[572.0,726.0],[569.0,728.0],[577.0,738.0],[571.0,737.0],[566.0,722.0],[559.0,720.0],[563.0,722.0],[565.0,729.0],[559.0,723.0],[553.0,724.0],[555.0,733.0],[546.0,745.0],[547.0,758.0],[549.0,751.0],[555.0,753.0],[555.0,761.0],[559.0,761.0],[561.0,765.0],[566.0,764.0],[573.0,773.0],[569.0,774.0],[570.0,778.0],[567.0,777.0],[564.0,785.0],[547.0,783.0],[548.0,776.0],[542.0,776.0],[541.0,781.0],[545.0,786.0],[539.0,781.0],[543.0,788.0],[568.0,786.0],[569.0,783.0],[573.0,785.0],[564.0,792.0],[550.0,789.0],[542.0,793.0],[540.0,798.0],[538.0,795.0],[531.0,796.0],[524.0,801.0],[525.0,808.0],[522.0,805.0],[519.0,816.0],[515.0,816.0],[518.0,826.0],[515.0,826.0],[515.0,822.0],[510.0,822.0],[506.0,826.0],[512.0,827.0],[513.0,830.0],[510.0,832.0],[506.0,829.0],[503.0,833.0],[500.0,830.0],[504.0,826.0],[494.0,827.0],[499.0,828.0],[495.0,832.0],[498.0,837.0],[491.0,840.0],[491.0,836.0],[485.0,832.0],[480.0,847.0],[492.0,843.0],[498.0,847.0],[494.0,850.0],[494.0,853.0],[503.0,850.0],[505.0,838.0],[513.0,837.0],[510.0,835.0],[512.0,832.0],[522.0,831.0],[523.0,825.0],[529.0,826.0],[527.0,837.0],[533.0,835.0],[534.0,845.0],[540.0,846.0],[540.0,842.0],[543.0,841.0],[541.0,838.0],[546.0,839.0],[546.0,836.0],[537.0,834.0],[534.0,822.0],[541.0,812.0],[539.0,806.0],[542.0,806.0],[543.0,799.0],[551.0,801.0],[549.0,808.0],[564.0,805.0],[566.0,810.0],[561.0,810.0],[563.0,817.0],[567.0,818.0],[567.0,811.0],[579.0,811.0],[580.0,815.0],[585.0,816.0],[586.0,810.0],[577.0,807.0],[577.0,800.0],[574.0,800.0],[573.0,804.0],[569.0,803.0],[575.0,796.0],[570.0,793.0],[574.0,790.0],[573.0,786.0],[577.0,785.0],[578.0,780.0],[584.0,782.0],[596.0,779.0],[596.0,787.0],[585.0,789.0],[587.0,794.0],[583.0,794.0],[582.0,797.0],[587.0,797.0],[598.0,787.0],[606.0,788.0],[607.0,783.0],[609.0,786.0],[610.0,783.0],[606.0,779.0],[603.0,783.0],[603.0,779.0],[599.0,777.0],[600.0,771.0],[593.0,776.0],[598.0,768.0],[593.0,768.0],[592.0,773.0],[589.0,772.0],[588.0,775.0],[576.0,771.0],[581.0,768.0],[588.0,769.0],[588.0,755.0],[585.0,756.0],[578.0,748.0],[587.0,750.0],[590.0,734.0],[584.0,730.0],[587.0,726.0],[580.0,725.0],[574.0,718.0]]]}},{"type":"Feature","properties":{"class":2},"geometry":{"type":"Polygon","coordinates":[[[546.0,649.0],[557.0,669.0],[555.0,674.0],[551.0,674.0],[556.0,679.0],[558.0,674.0],[562.0,675.0],[568.0,669.0],[569.0,662.0],[565.0,663.0],[566.0,659.0],[561.0,655.0],[556.0,656.0],[557.0,653.0],[546.0,649.0]]]}},{"type":"Feature","properties":{"class":2},"geometry":{"type":"Polygon","coordinates":[[[807.0,414.0],[799.0,423.0],[795.0,423.0],[786.0,448.0],[786.0,482.0],[790.0,483.0],[786.0,487.0],[793.0,490.0],[806.0,504.0],[819.0,502.0],[820.0,506.0],[823.0,503.0],[828.0,504.0],[832.0,498.0],[846.0,497.0],[851.0,493.0],[847.0,499.0],[850.0,500.0],[854.0,497.0],[857.0,486.0],[853.0,484.0],[855.0,480.0],[850.0,473.0],[847.0,473.0],[848.0,482.0],[844.0,475.0],[848.0,459.0],[844.0,456.0],[846.0,453.0],[841.0,445.0],[842.0,437.0],[835.0,436.0],[834.0,424.0],[830.0,425.0],[813.0,414.0],[807.0,414.0]]]}},{"type":"Feature","properties":{"class":2},"geometry":{"type":"Polygon","coordinates":[[[842.0,345.0],[842.0,351.0],[838.0,353.0],[848.0,361.0],[849.0,369.0],[856.0,367.0],[860.0,372.0],[860.0,377.0],[851.0,382.0],[852.0,386.0],[848.0,392.0],[852.0,402.0],[844.0,396.0],[840.0,399.0],[838.0,395.0],[838.0,398.0],[833.0,399.0],[831.0,393.0],[819.0,394.0],[821.0,400.0],[816.0,408.0],[823.0,415.0],[816.0,416.0],[822.0,420.0],[825.0,420.0],[825.0,417.0],[837.0,419.0],[827.0,422.0],[838.0,423.0],[836.0,434.0],[839.0,433.0],[844.0,438.0],[847.0,447.0],[850.0,444.0],[858.0,444.0],[860.0,454.0],[855.0,456.0],[849.0,451.0],[848.0,455.0],[852.0,458.0],[847.0,462.0],[850.0,466.0],[853.0,464.0],[848.0,472.0],[853.0,474.0],[861.0,485.0],[853.0,499.0],[859.0,499.0],[859.0,494.0],[860.0,497.0],[865.0,494.0],[866.0,499.0],[874.0,502.0],[878.0,499.0],[876.0,494.0],[882.0,491.0],[886.0,493.0],[890.0,486.0],[901.0,482.0],[903.0,488.0],[903.0,481.0],[898.0,481.0],[902.0,472.0],[898.0,468.0],[897.0,474.0],[896.0,468.0],[891.0,467.0],[891.0,461.0],[873.0,440.0],[875.0,437.0],[871.0,429.0],[862.0,420.0],[851.0,415.0],[853.0,409.0],[849.0,407.0],[859.0,397.0],[861.0,390.0],[868.0,393.0],[870.0,399.0],[866.0,400.0],[863.0,397.0],[859.0,408.0],[861.0,411.0],[867.0,410.0],[865.0,417.0],[872.0,421.0],[869.0,426.0],[874.0,431.0],[873.0,427.0],[877.0,428.0],[873.0,421.0],[876.0,408.0],[873.0,407.0],[870.0,416.0],[867.0,416.0],[868.0,401.0],[873.0,406.0],[874.0,398.0],[877.0,395.0],[882.0,396.0],[877.0,393.0],[877.0,391.0],[878.0,392.0],[888.0,391.0],[881.0,391.0],[875.0,386.0],[872.0,386.0],[873.0,383.0],[864.0,381.0],[862.0,371.0],[866.0,370.0],[860.0,370.0],[858.0,365.0],[851.0,366.0],[855.0,360.0],[852.0,357.0],[852.0,350.0],[850.0,351.0],[850.0,346.0],[842.0,345.0]]]}},{"type":"Feature","properties":{"class":2},"geometry":{"type":"Polygon","coordinates":[[[907.0,402.0],[908.0,408.0],[904.0,409.0],[904.0,413.0],[909.0,417.0],[915.0,412.0],[919.0,419.0],[903.0,422.0],[901.0,417.0],[892.0,420.0],[888.0,416.0],[883.0,417.0],[882.0,422.0],[878.0,420.0],[879.0,431.0],[883.0,431.0],[880.0,432.0],[881.0,435.0],[892.0,431.0],[891.0,436.0],[884.0,437.0],[886.0,442.0],[896.0,442.0],[897.0,435.0],[906.0,439.0],[927.0,437.0],[929.0,433.0],[938.0,435.0],[938.0,432.0],[962.0,425.0],[965.0,419.0],[974.0,416.0],[971.0,407.0],[959.0,406.0],[955.0,409.0],[939.0,405.0],[936.0,407.0],[938.0,410.0],[933.0,410.0],[927.0,421.0],[922.0,421.0],[928.0,413.0],[919.0,409.0],[913.0,411.0],[907.0,402.0]]]}},{"type":"Feature","properties":{"class":2},"geometry":{"type":"Polygon","coordinates":[[[936.0,326.0],[937.0,332.0],[911.0,329.0],[907.0,336.0],[903.0,334.0],[901.0,340.0],[907.0,341.0],[908.0,344.0],[910.0,342.0],[907.0,347.0],[908.0,353.0],[920.0,359.0],[921.0,364.0],[917.0,366.0],[918.0,371.0],[913.0,369.0],[905.0,376.0],[910.0,386.0],[917.0,387.0],[901.0,392.0],[900.0,396.0],[917.0,397.0],[917.0,400.0],[930.0,402.0],[929.0,399.0],[938.0,396.0],[932.0,392.0],[946.0,390.0],[950.0,385.0],[956.0,387.0],[957.0,383.0],[963.0,380.0],[965.0,382.0],[961.0,386.0],[961.0,392.0],[967.0,394.0],[968.0,391.0],[975.0,391.0],[976.0,395.0],[981.0,395.0],[987.0,393.0],[985.0,383.0],[988.0,384.0],[990.0,379.0],[997.0,375.0],[1002.0,376.0],[1004.0,372.0],[1008.0,375.0],[1014.0,374.0],[1014.0,359.0],[1010.0,359.0],[1010.0,355.0],[983.0,348.0],[981.0,345.0],[974.0,347.0],[974.0,344.0],[967.0,343.0],[963.0,338.0],[963.0,332.0],[956.0,334.0],[958.0,340.0],[950.0,336.0],[944.0,340.0],[946.0,327.0],[936.0,326.0]]]}},{"type":"Feature","properties":{"class":2},"geometry":{"type":"Polygon","coordinates":[[[898.0,232.0],[898.0,242.0],[903.0,247.0],[904.0,254.0],[893.0,243.0],[889.0,242.0],[890.0,245.0],[886.0,245.0],[887.0,239.0],[883.0,237.0],[872.0,238.0],[869.0,242.0],[866.0,241.0],[867.0,235.0],[861.0,239.0],[864.0,265.0],[875.0,271.0],[887.0,271.0],[888.0,273.0],[881.0,276.0],[884.0,283.0],[890.0,282.0],[889.0,274.0],[895.0,278.0],[898.0,276.0],[895.0,266.0],[890.0,261.0],[896.0,262.0],[898.0,267.0],[900.0,261.0],[903.0,261.0],[904.0,267.0],[908.0,267.0],[910.0,263.0],[912.0,268.0],[920.0,273.0],[921.0,262.0],[925.0,260.0],[922.0,248.0],[916.0,248.0],[920.0,244.0],[918.0,239.0],[910.0,236.0],[911.0,241.0],[908.0,241.0],[907.0,233.0],[904.0,237.0],[902.0,232.0],[898.0,232.0]]]}},{"type":"Feature","properties":{"class":2},"geometry":{"type":"Polygon","coordinates":[[[879.0,353.0],[882.0,361.0],[885.0,362.0],[882.0,354.0],[879.0,353.0]]]}},{"type":"Feature","properties":{"class":2},"geometry":{"type":"Polygon","coordinates":[[[532.0,221.0],[528.0,223.0],[529.0,226.0],[521.0,225.0],[533.0,230.0],[531.0,232.0],[525.0,228.0],[532.0,239.0],[528.0,235.0],[524.0,239.0],[520.0,236.0],[520.0,240.0],[527.0,239.0],[527.0,243.0],[522.0,243.0],[522.0,246.0],[526.0,246.0],[527.0,253.0],[530.0,250.0],[538.0,252.0],[539.0,248.0],[545.0,251.0],[540.0,251.0],[539.0,257.0],[536.0,254.0],[529.0,254.0],[529.0,258.0],[523.0,259.0],[523.0,253.0],[522.0,257.0],[517.0,256.0],[517.0,259.0],[519.0,257.0],[519.0,260.0],[524.0,260.0],[526.0,266.0],[531.0,269.0],[534.0,268.0],[534.0,264.0],[537.0,267.0],[540.0,262.0],[549.0,259.0],[545.0,258.0],[548.0,251.0],[550.0,257.0],[555.0,250.0],[554.0,247.0],[549.0,248.0],[550.0,241.0],[545.0,238.0],[546.0,233.0],[543.0,233.0],[542.0,238.0],[535.0,237.0],[537.0,230.0],[530.0,226.0],[532.0,223.0],[535.0,224.0],[532.0,221.0]]]}},{"type":"Feature","properties":{"class":2},"geometry":{"type":"Polygon","coordinates":[[[562.0,201.0],[556.0,206.0],[560.0,216.0],[555.0,218.0],[560.0,222.0],[565.0,219.0],[568.0,223.0],[566.0,229.0],[581.0,224.0],[594.0,233.0],[599.0,231.0],[598.0,222.0],[604.0,221.0],[606.0,224.0],[608.0,217.0],[614.0,213.0],[612.0,209.0],[605.0,214.0],[606.0,211.0],[599.0,208.0],[591.0,212.0],[593.0,209.0],[590.0,207.0],[583.0,211.0],[577.0,202.0],[569.0,205.0],[562.0,201.0]]]}},{"type":"Feature","properties":{"class":2},"geometry":{"type":"Polygon","coordinates":[[[904.0,36.0],[902.0,39.0],[906.0,45.0],[903.0,42.0],[901.0,43.0],[905.0,47.0],[897.0,44.0],[896.0,52.0],[903.0,56.0],[905.0,61.0],[913.0,57.0],[915.0,70.0],[911.0,70.0],[907.0,81.0],[909.0,85.0],[912.0,83.0],[914.0,87.0],[920.0,87.0],[922.0,98.0],[918.0,103.0],[911.0,104.0],[906.0,96.0],[907.0,88.0],[897.0,82.0],[891.0,85.0],[891.0,78.0],[886.0,82.0],[886.0,86.0],[889.0,91.0],[894.0,88.0],[894.0,92.0],[890.0,92.0],[888.0,99.0],[883.0,98.0],[883.0,87.0],[880.0,88.0],[877.0,109.0],[878.0,134.0],[886.0,159.0],[891.0,156.0],[900.0,158.0],[900.0,155.0],[906.0,154.0],[909.0,154.0],[908.0,158.0],[914.0,156.0],[914.0,159.0],[929.0,156.0],[929.0,154.0],[925.0,154.0],[925.0,153.0],[924.0,153.0],[924.0,152.0],[923.0,152.0],[928.0,139.0],[928.0,129.0],[923.0,129.0],[921.0,124.0],[913.0,125.0],[906.0,115.0],[909.0,107.0],[911.0,110.0],[919.0,105.0],[924.0,106.0],[925.0,103.0],[933.0,106.0],[933.0,102.0],[937.0,100.0],[945.0,103.0],[940.0,105.0],[943.0,110.0],[948.0,108.0],[950.0,112.0],[955.0,112.0],[960.0,109.0],[962.0,113.0],[967.0,113.0],[978.0,92.0],[988.0,86.0],[987.0,80.0],[982.0,77.0],[979.0,70.0],[972.0,68.0],[977.0,65.0],[971.0,60.0],[954.0,59.0],[953.0,53.0],[950.0,52.0],[949.0,56.0],[944.0,49.0],[941.0,51.0],[946.0,53.0],[946.0,56.0],[934.0,53.0],[920.0,38.0],[904.0,36.0]]]}},{"type":"Feature","properties":{"class":2},"geometry":{"type":"Polygon","coordinates":[[[903.0,36.0],[903.0,46.0],[896.0,44.0],[895.0,50.0],[906.0,62.0],[913.0,58.0],[911.0,64.0],[915.0,69.0],[911.0,69.0],[907.0,74.0],[907.0,82.0],[910.0,86.0],[913.0,84.0],[914.0,88.0],[918.0,88.0],[921.0,97.0],[916.0,102.0],[911.0,100.0],[913.0,103.0],[911.0,104.0],[908.0,101.0],[907.0,88.0],[902.0,87.0],[901.0,78.0],[900.0,84.0],[895.0,82.0],[892.0,85.0],[892.0,78.0],[887.0,80.0],[888.0,90.0],[894.0,89.0],[887.0,99.0],[884.0,99.0],[884.0,87.0],[881.0,86.0],[879.0,89.0],[876.0,109.0],[880.0,146.0],[885.0,159.0],[894.0,157.0],[894.0,161.0],[897.0,161.0],[896.0,157.0],[902.0,159.0],[900.0,155.0],[908.0,155.0],[907.0,158.0],[914.0,159.0],[930.0,156.0],[924.0,152.0],[924.0,148.0],[929.0,145.0],[928.0,128.0],[923.0,129.0],[918.0,123.0],[914.0,125.0],[914.0,120.0],[907.0,116.0],[907.0,110.0],[910.0,111.0],[919.0,105.0],[925.0,106.0],[927.0,103.0],[929.0,106.0],[938.0,105.0],[943.0,110.0],[947.0,108.0],[950.0,112.0],[959.0,110.0],[960.0,114.0],[968.0,113.0],[978.0,93.0],[988.0,86.0],[987.0,80.0],[982.0,77.0],[977.0,65.0],[971.0,60.0],[964.0,61.0],[961.0,57.0],[955.0,59.0],[952.0,55.0],[956.0,54.0],[949.0,52.0],[951.0,55.0],[948.0,55.0],[945.0,49.0],[941.0,50.0],[945.0,55.0],[935.0,53.0],[919.0,37.0],[903.0,36.0]]]}},{"type":"Feature","properties":{"class":2},"geometry":{"type":"Polygon","coordinates":[[[1136.0,90.0],[1131.0,95.0],[1130.0,112.0],[1132.0,115.0],[1137.0,114.0],[1134.0,118.0],[1134.0,133.0],[1139.0,141.0],[1140.0,152.0],[1144.0,152.0],[1142.0,160.0],[1151.0,173.0],[1169.0,171.0],[1172.0,174.0],[1170.0,179.0],[1156.0,183.0],[1152.0,189.0],[1165.0,203.0],[1166.0,200.0],[1179.0,201.0],[1189.0,197.0],[1189.0,193.0],[1193.0,192.0],[1210.0,192.0],[1208.0,187.0],[1219.0,181.0],[1239.0,177.0],[1248.0,166.0],[1250.0,155.0],[1221.0,132.0],[1214.0,123.0],[1204.0,121.0],[1204.0,126.0],[1201.0,126.0],[1200.0,116.0],[1196.0,117.0],[1196.0,121.0],[1190.0,121.0],[1191.0,124.0],[1180.0,117.0],[1177.0,118.0],[1179.0,121.0],[1175.0,122.0],[1171.0,119.0],[1173.0,116.0],[1163.0,118.0],[1147.0,109.0],[1140.0,111.0],[1140.0,96.0],[1136.0,90.0]]]}},{"type":"Feature","properties":{"class":2},"geometry":{"type":"Polygon","coordinates":[[[1341.0,126.0],[1335.0,137.0],[1330.0,133.0],[1327.0,135.0],[1327.0,143.0],[1333.0,146.0],[1326.0,146.0],[1322.0,140.0],[1317.0,142.0],[1317.0,151.0],[1325.0,152.0],[1321.0,155.0],[1323.0,158.0],[1326.0,157.0],[1328.0,161.0],[1333.0,157.0],[1326.0,168.0],[1331.0,178.0],[1339.0,179.0],[1341.0,183.0],[1344.0,182.0],[1356.0,190.0],[1385.0,196.0],[1412.0,199.0],[1417.0,195.0],[1416.0,188.0],[1420.0,183.0],[1425.0,183.0],[1425.0,179.0],[1421.0,177.0],[1421.0,172.0],[1411.0,168.0],[1406.0,162.0],[1407.0,159.0],[1403.0,157.0],[1403.0,152.0],[1399.0,151.0],[1392.0,141.0],[1363.0,127.0],[1341.0,126.0]]]}},{"type":"Feature","properties":{"class":2},"geometry":{"type":"Polygon","coordinates":[[[1439.0,342.0],[1434.0,347.0],[1440.0,355.0],[1441.0,362.0],[1444.0,363.0],[1444.0,375.0],[1451.0,376.0],[1452.0,386.0],[1445.0,388.0],[1447.0,379.0],[1431.0,364.0],[1406.0,363.0],[1407.0,352.0],[1402.0,355.0],[1404.0,360.0],[1389.0,359.0],[1387.0,361.0],[1392.0,363.0],[1391.0,366.0],[1386.0,366.0],[1384.0,369.0],[1372.0,370.0],[1372.0,375.0],[1367.0,375.0],[1369.0,381.0],[1366.0,385.0],[1369.0,387.0],[1370.0,384.0],[1374.0,386.0],[1382.0,381.0],[1389.0,381.0],[1393.0,383.0],[1390.0,388.0],[1395.0,387.0],[1398.0,391.0],[1403.0,389.0],[1414.0,402.0],[1414.0,397.0],[1417.0,397.0],[1419.0,405.0],[1419.0,400.0],[1425.0,399.0],[1426.0,394.0],[1426.0,390.0],[1422.0,390.0],[1426.0,383.0],[1420.0,367.0],[1429.0,368.0],[1431.0,374.0],[1434.0,372.0],[1433.0,377.0],[1436.0,377.0],[1443.0,385.0],[1439.0,388.0],[1435.0,385.0],[1436.0,379.0],[1433.0,379.0],[1432.0,387.0],[1426.0,388.0],[1433.0,390.0],[1434.0,397.0],[1441.0,400.0],[1436.0,403.0],[1440.0,406.0],[1440.0,414.0],[1431.0,416.0],[1430.0,420.0],[1433.0,417.0],[1442.0,417.0],[1445.0,441.0],[1449.0,449.0],[1452.0,442.0],[1457.0,444.0],[1458.0,448.0],[1453.0,451.0],[1458.0,454.0],[1463.0,443.0],[1459.0,421.0],[1460.0,418.0],[1462.0,422.0],[1465.0,419.0],[1465.0,402.0],[1472.0,397.0],[1473.0,387.0],[1465.0,387.0],[1459.0,362.0],[1446.0,348.0],[1443.0,348.0],[1439.0,342.0]]]}},{"type":"Feature","properties":{"class":2},"geometry":{"type":"Polygon","coordinates":[[[1381.0,305.0],[1375.0,312.0],[1370.0,309.0],[1357.0,312.0],[1357.0,320.0],[1347.0,317.0],[1344.0,328.0],[1338.0,333.0],[1343.0,342.0],[1350.0,339.0],[1347.0,348.0],[1344.0,347.0],[1346.0,353.0],[1353.0,355.0],[1351.0,348.0],[1354.0,340.0],[1359.0,348.0],[1359.0,352.0],[1354.0,353.0],[1364.0,354.0],[1363.0,347.0],[1367.0,347.0],[1371.0,341.0],[1365.0,344.0],[1363.0,343.0],[1369.0,340.0],[1370.0,336.0],[1367.0,333.0],[1375.0,326.0],[1384.0,333.0],[1382.0,339.0],[1388.0,339.0],[1392.0,329.0],[1402.0,332.0],[1399.0,334.0],[1402.0,346.0],[1397.0,345.0],[1397.0,351.0],[1389.0,356.0],[1385.0,355.0],[1385.0,358.0],[1395.0,358.0],[1397.0,353.0],[1400.0,356.0],[1408.0,347.0],[1413.0,349.0],[1415.0,348.0],[1415.0,345.0],[1420.0,344.0],[1420.0,335.0],[1414.0,340.0],[1411.0,338.0],[1404.0,340.0],[1402.0,337.0],[1405.0,331.0],[1410.0,330.0],[1410.0,327.0],[1406.0,325.0],[1409.0,320.0],[1402.0,313.0],[1400.0,318.0],[1389.0,316.0],[1389.0,313.0],[1381.0,309.0],[1381.0,305.0]]]}},{"type":"Feature","properties":{"class":2},"geometry":{"type":"Polygon","coordinates":[[[1385.0,391.0],[1380.0,396.0],[1376.0,395.0],[1376.0,400.0],[1373.0,400.0],[1376.0,407.0],[1369.0,407.0],[1369.0,404.0],[1366.0,404.0],[1363.0,410.0],[1362.0,406.0],[1358.0,407.0],[1361.0,413.0],[1352.0,418.0],[1353.0,421.0],[1357.0,421.0],[1356.0,426.0],[1352.0,426.0],[1353.0,423.0],[1350.0,422.0],[1340.0,424.0],[1349.0,428.0],[1349.0,437.0],[1366.0,437.0],[1367.0,434.0],[1363.0,434.0],[1362.0,430.0],[1370.0,431.0],[1370.0,424.0],[1373.0,428.0],[1382.0,430.0],[1389.0,424.0],[1390.0,432.0],[1394.0,420.0],[1404.0,418.0],[1408.0,422.0],[1411.0,421.0],[1405.0,418.0],[1412.0,416.0],[1412.0,413.0],[1407.0,415.0],[1409.0,402.0],[1405.0,400.0],[1404.0,405.0],[1401.0,398.0],[1385.0,391.0]]]}},{"type":"Feature","properties":{"class":2},"geometry":{"type":"Polygon","coordinates":[[[1317.0,488.0],[1303.0,491.0],[1301.0,496.0],[1306.0,503.0],[1305.0,509.0],[1313.0,507.0],[1316.0,509.0],[1316.0,512.0],[1313.0,512.0],[1316.0,516.0],[1313.0,517.0],[1311.0,511.0],[1304.0,514.0],[1302.0,511.0],[1292.0,510.0],[1288.0,513.0],[1287.0,525.0],[1284.0,526.0],[1282.0,523.0],[1279.0,529.0],[1292.0,534.0],[1299.0,533.0],[1304.0,543.0],[1313.0,540.0],[1318.0,543.0],[1324.0,541.0],[1324.0,544.0],[1357.0,543.0],[1358.0,537.0],[1361.0,536.0],[1359.0,531.0],[1364.0,530.0],[1365.0,521.0],[1369.0,519.0],[1369.0,515.0],[1365.0,513.0],[1373.0,511.0],[1368.0,508.0],[1360.0,509.0],[1359.0,506.0],[1375.0,501.0],[1369.0,498.0],[1363.0,502.0],[1363.0,496.0],[1354.0,495.0],[1357.0,500.0],[1353.0,503.0],[1358.0,506.0],[1351.0,507.0],[1347.0,511.0],[1347.0,519.0],[1336.0,525.0],[1342.0,517.0],[1326.0,522.0],[1326.0,513.0],[1321.0,512.0],[1320.0,507.0],[1325.0,506.0],[1325.0,500.0],[1329.0,498.0],[1320.0,492.0],[1317.0,493.0],[1317.0,488.0]]]}},{"type":"Feature","properties":{"class":2},"geometry":{"type":"Polygon","coordinates":[[[1274.0,415.0],[1270.0,421.0],[1265.0,421.0],[1262.0,424.0],[1264.0,428.0],[1270.0,427.0],[1270.0,432.0],[1264.0,434.0],[1265.0,439.0],[1269.0,440.0],[1269.0,445.0],[1264.0,444.0],[1260.0,453.0],[1254.0,451.0],[1247.0,460.0],[1256.0,461.0],[1261.0,456.0],[1268.0,459.0],[1266.0,452.0],[1273.0,452.0],[1268.0,449.0],[1274.0,445.0],[1270.0,443.0],[1272.0,438.0],[1279.0,446.0],[1286.0,445.0],[1287.0,451.0],[1293.0,436.0],[1297.0,435.0],[1298.0,438.0],[1303.0,435.0],[1303.0,438.0],[1306.0,438.0],[1304.0,434.0],[1307.0,432.0],[1313.0,437.0],[1314.0,444.0],[1310.0,442.0],[1302.0,444.0],[1304.0,450.0],[1299.0,450.0],[1298.0,457.0],[1293.0,459.0],[1290.0,454.0],[1286.0,460.0],[1288.0,464.0],[1293.0,465.0],[1294.0,460.0],[1298.0,461.0],[1296.0,465.0],[1303.0,466.0],[1301.0,473.0],[1304.0,475.0],[1293.0,469.0],[1291.0,474.0],[1295.0,475.0],[1293.0,479.0],[1289.0,476.0],[1288.0,466.0],[1276.0,467.0],[1272.0,462.0],[1270.0,465.0],[1276.0,472.0],[1280.0,470.0],[1281.0,478.0],[1285.0,479.0],[1285.0,487.0],[1289.0,489.0],[1294.0,486.0],[1293.0,481.0],[1296.0,486.0],[1310.0,483.0],[1313.0,476.0],[1306.0,474.0],[1304.0,464.0],[1309.0,462.0],[1308.0,465.0],[1311.0,467.0],[1318.0,462.0],[1319.0,457.0],[1316.0,455.0],[1311.0,455.0],[1312.0,451.0],[1308.0,446.0],[1313.0,448.0],[1316.0,445.0],[1316.0,451.0],[1320.0,451.0],[1320.0,448.0],[1316.0,436.0],[1307.0,431.0],[1309.0,421.0],[1304.0,420.0],[1302.0,423.0],[1301.0,420.0],[1297.0,420.0],[1299.0,423.0],[1296.0,423.0],[1287.0,416.0],[1282.0,419.0],[1282.0,416.0],[1276.0,418.0],[1274.0,415.0]]]}},{"type":"Feature","properties":{"class":2},"geometry":{"type":"Polygon","coordinates":[[[300.0,163.0],[299.0,166.0],[272.0,164.0],[255.0,165.0],[257.0,168.0],[228.0,167.0],[209.0,176.0],[206.0,183.0],[210.0,191.0],[207.0,193.0],[216.0,199.0],[220.0,206.0],[217.0,210.0],[224.0,216.0],[223.0,222.0],[218.0,222.0],[217.0,224.0],[224.0,226.0],[224.0,222.0],[238.0,221.0],[240.0,226.0],[235.0,224.0],[232.0,229.0],[237.0,231.0],[243.0,227.0],[245.0,234.0],[242.0,235.0],[246.0,240.0],[252.0,245.0],[265.0,243.0],[262.0,251.0],[266.0,248.0],[269.0,254.0],[273.0,253.0],[270.0,251.0],[273.0,244.0],[267.0,242.0],[284.0,237.0],[296.0,238.0],[296.0,242.0],[304.0,248.0],[306.0,244.0],[300.0,241.0],[302.0,231.0],[308.0,231.0],[307.0,235.0],[310.0,239.0],[313.0,237.0],[309.0,235.0],[310.0,232.0],[326.0,231.0],[328.0,227.0],[325.0,223.0],[330.0,222.0],[329.0,217.0],[336.0,214.0],[336.0,210.0],[326.0,180.0],[321.0,177.0],[320.0,184.0],[317.0,183.0],[317.0,170.0],[306.0,168.0],[302.0,176.0],[292.0,177.0],[295.0,171.0],[302.0,172.0],[300.0,163.0]]]}},{"type":"Feature","properties":{"class":2},"geometry":{"type":"Polygon","coordinates":[[[161.0,136.0],[155.0,150.0],[145.0,150.0],[141.0,158.0],[137.0,158.0],[138.0,164.0],[134.0,172.0],[133.0,173.0],[130.0,171.0],[128.0,172.0],[132.0,175.0],[140.0,176.0],[140.0,180.0],[147.0,183.0],[151.0,180.0],[153.0,183.0],[159.0,183.0],[166.0,177.0],[165.0,169.0],[169.0,174.0],[172.0,173.0],[173.0,168.0],[178.0,169.0],[177.0,176.0],[185.0,176.0],[191.0,167.0],[181.0,189.0],[193.0,199.0],[182.0,201.0],[178.0,197.0],[178.0,202.0],[167.0,203.0],[160.0,198.0],[156.0,203.0],[156.0,213.0],[160.0,206.0],[162.0,211.0],[174.0,215.0],[175.0,213.0],[169.0,211.0],[169.0,206.0],[176.0,207.0],[179.0,202.0],[183.0,202.0],[186.0,204.0],[180.0,211.0],[184.0,210.0],[188.0,219.0],[201.0,219.0],[201.0,213.0],[204.0,215.0],[207.0,213.0],[202.0,202.0],[197.0,205.0],[197.0,209.0],[194.0,208.0],[196.0,202.0],[193.0,192.0],[201.0,196.0],[196.0,190.0],[195.0,182.0],[191.0,189.0],[184.0,186.0],[191.0,185.0],[188.0,177.0],[194.0,176.0],[192.0,180.0],[195.0,181.0],[198.0,175.0],[195.0,170.0],[196.0,164.0],[189.0,157.0],[196.0,154.0],[204.0,141.0],[202.0,137.0],[200.0,142.0],[197.0,142.0],[194.0,137.0],[189.0,136.0],[187.0,141.0],[191.0,140.0],[193.0,143.0],[189.0,155.0],[187.0,152.0],[185.0,154.0],[181.0,147.0],[173.0,145.0],[173.0,148.0],[177.0,147.0],[183.0,153.0],[176.0,151.0],[176.0,164.0],[170.0,168.0],[171.0,171.0],[165.0,167.0],[160.0,169.0],[160.0,172.0],[151.0,172.0],[151.0,168.0],[161.0,165.0],[156.0,159.0],[157.0,155.0],[155.0,156.0],[160.0,143.0],[165.0,144.0],[161.0,141.0],[161.0,136.0]]]}},{"type":"Feature","properties":{"class":2},"geometry":{"type":"Polygon","coordinates":[[[85.0,164.0],[81.0,171.0],[82.0,175.0],[85.0,174.0],[84.0,183.0],[75.0,183.0],[69.0,188.0],[70.0,191.0],[75.0,196.0],[81.0,196.0],[80.0,190.0],[83.0,190.0],[85.0,185.0],[90.0,191.0],[89.0,194.0],[93.0,195.0],[91.0,198.0],[82.0,199.0],[86.0,200.0],[97.0,197.0],[95.0,203.0],[91.0,201.0],[87.0,205.0],[100.0,204.0],[103.0,207.0],[101.0,213.0],[105.0,213.0],[108.0,218.0],[110.0,217.0],[105.0,209.0],[129.0,211.0],[125.0,208.0],[136.0,200.0],[127.0,193.0],[126.0,188.0],[123.0,188.0],[123.0,194.0],[120.0,190.0],[117.0,190.0],[119.0,178.0],[108.0,171.0],[97.0,177.0],[98.0,168.0],[85.0,164.0]]]}},{"type":"Feature","properties":{"class":2},"geometry":{"type":"Polygon","coordinates":[[[156.0,236.0],[151.0,239.0],[151.0,245.0],[159.0,245.0],[166.0,259.0],[160.0,261.0],[157.0,273.0],[153.0,271.0],[148.0,275.0],[152.0,274.0],[155.0,278.0],[153.0,284.0],[160.0,277.0],[173.0,284.0],[174.0,273.0],[163.0,268.0],[167.0,265.0],[175.0,266.0],[175.0,261.0],[185.0,253.0],[178.0,250.0],[172.0,254.0],[178.0,256.0],[172.0,258.0],[174.0,265.0],[171.0,265.0],[169.0,261.0],[167.0,262.0],[169.0,256.0],[166.0,255.0],[171.0,253.0],[167.0,249.0],[163.0,251.0],[158.0,242.0],[160.0,239.0],[156.0,236.0]]]}},{"type":"Feature","properties":{"class":2},"geometry":{"type":"Polygon","coordinates":[[[167.0,351.0],[161.0,356.0],[158.0,366.0],[174.0,370.0],[181.0,376.0],[185.0,375.0],[189.0,379.0],[231.0,385.0],[230.0,382.0],[223.0,380.0],[218.0,372.0],[207.0,366.0],[186.0,361.0],[184.0,355.0],[167.0,351.0]]]}},{"type":"Feature","properties":{"class":2},"geometry":{"type":"Polygon","coordinates":[[[1111.0,979.0],[1104.0,983.0],[1102.0,989.0],[1102.0,994.0],[1106.0,990.0],[1109.0,992.0],[1106.0,998.0],[1103.0,995.0],[1097.0,998.0],[1098.0,993.0],[1088.0,995.0],[1087.0,998.0],[1082.0,997.0],[1085.0,995.0],[1084.0,992.0],[1077.0,994.0],[1082.0,998.0],[1081.0,1001.0],[1086.0,1002.0],[1089.0,1002.0],[1089.0,997.0],[1094.0,996.0],[1094.0,1004.0],[1085.0,1005.0],[1091.0,1013.0],[1102.0,1014.0],[1105.0,1022.0],[1110.0,1022.0],[1131.0,1035.0],[1150.0,1034.0],[1161.0,1023.0],[1170.0,1021.0],[1171.0,1016.0],[1158.0,1009.0],[1159.0,1002.0],[1151.0,1001.0],[1153.0,998.0],[1159.0,998.0],[1159.0,993.0],[1154.0,991.0],[1151.0,997.0],[1147.0,997.0],[1143.0,991.0],[1135.0,991.0],[1137.0,987.0],[1131.0,987.0],[1127.0,982.0],[1127.0,987.0],[1117.0,986.0],[1115.0,990.0],[1115.0,980.0],[1111.0,979.0]]]}},{"type":"Feature","properties":{"class":2},"geometry":{"type":"Polygon","coordinates":[[[1559.0,1036.0],[1556.0,1041.0],[1565.0,1048.0],[1561.0,1053.0],[1551.0,1054.0],[1548.0,1050.0],[1542.0,1050.0],[1536.0,1054.0],[1538.0,1058.0],[1547.0,1054.0],[1548.0,1061.0],[1557.0,1057.0],[1556.0,1062.0],[1552.0,1062.0],[1549.0,1068.0],[1542.0,1068.0],[1552.0,1074.0],[1560.0,1073.0],[1561.0,1080.0],[1553.0,1078.0],[1548.0,1085.0],[1562.0,1088.0],[1559.0,1085.0],[1566.0,1082.0],[1573.0,1083.0],[1572.0,1087.0],[1578.0,1087.0],[1587.0,1078.0],[1591.0,1081.0],[1591.0,1076.0],[1598.0,1074.0],[1594.0,1070.0],[1595.0,1051.0],[1600.0,1050.0],[1600.0,1047.0],[1591.0,1047.0],[1592.0,1042.0],[1584.0,1039.0],[1576.0,1044.0],[1578.0,1049.0],[1583.0,1047.0],[1584.0,1050.0],[1574.0,1053.0],[1566.0,1043.0],[1568.0,1039.0],[1559.0,1036.0]]]}},{"type":"Feature","properties":{"class":2},"geometry":{"type":"Polygon","coordinates":[[[1601.0,1048.0],[1596.0,1053.0],[1595.0,1060.0],[1599.0,1066.0],[1595.0,1067.0],[1595.0,1070.0],[1599.0,1074.0],[1602.0,1074.0],[1598.0,1070.0],[1603.0,1070.0],[1603.0,1062.0],[1609.0,1063.0],[1608.0,1067.0],[1611.0,1067.0],[1614.0,1058.0],[1614.0,1054.0],[1610.0,1053.0],[1607.0,1060.0],[1604.0,1060.0],[1603.0,1055.0],[1603.0,1059.0],[1597.0,1062.0],[1597.0,1054.0],[1602.0,1052.0],[1601.0,1048.0]]]}},{"type":"Feature","properties":{"class":2},"geometry":{"type":"Polygon","coordinates":[[[877.0,947.0],[880.0,953.0],[875.0,954.0],[873.0,948.0],[869.0,948.0],[869.0,955.0],[864.0,954.0],[861.0,958.0],[862.0,962.0],[872.0,970.0],[869.0,976.0],[877.0,975.0],[877.0,978.0],[873.0,979.0],[873.0,984.0],[862.0,977.0],[860.0,970.0],[864.0,972.0],[868.0,970.0],[862.0,967.0],[862.0,963.0],[858.0,963.0],[857.0,957.0],[860.0,953.0],[849.0,954.0],[851.0,970.0],[846.0,968.0],[838.0,974.0],[843.0,979.0],[838.0,980.0],[837.0,987.0],[844.0,988.0],[845.0,991.0],[840.0,992.0],[841.0,999.0],[838.0,995.0],[839.0,1003.0],[844.0,1008.0],[840.0,1007.0],[837.0,1014.0],[844.0,1018.0],[851.0,1007.0],[858.0,1009.0],[859.0,1005.0],[863.0,1005.0],[861.0,1007.0],[862.0,1009.0],[865.0,1005.0],[862.0,1000.0],[870.0,998.0],[871.0,1001.0],[867.0,1005.0],[871.0,1008.0],[871.0,1003.0],[876.0,1003.0],[877.0,1006.0],[873.0,1005.0],[873.0,1009.0],[868.0,1011.0],[863.0,1010.0],[862.0,1018.0],[866.0,1018.0],[867.0,1015.0],[873.0,1016.0],[878.0,1011.0],[883.0,1015.0],[880.0,1019.0],[883.0,1026.0],[888.0,1020.0],[886.0,1014.0],[894.0,1008.0],[894.0,999.0],[889.0,997.0],[890.0,992.0],[887.0,994.0],[885.0,986.0],[881.0,988.0],[882.0,981.0],[887.0,977.0],[885.0,972.0],[880.0,969.0],[880.0,973.0],[874.0,973.0],[874.0,964.0],[867.0,963.0],[873.0,958.0],[878.0,959.0],[886.0,958.0],[886.0,957.0],[883.0,957.0],[883.0,956.0],[882.0,956.0],[884.0,949.0],[880.0,950.0],[877.0,947.0]]]}},{"type":"Feature","properties":{"class":2},"geometry":{"type":"Polygon","coordinates":[[[848.0,869.0],[846.0,871.0],[848.0,872.0],[848.0,869.0]]]}},{"type":"Feature","properties":{"class":2},"geometry":{"type":"Polygon","coordinates":[[[824.0,858.0],[828.0,867.0],[825.0,864.0],[823.0,865.0],[829.0,870.0],[829.0,878.0],[835.0,876.0],[833.0,884.0],[838.0,884.0],[838.0,877.0],[843.0,877.0],[847.0,882.0],[839.0,887.0],[835.0,886.0],[835.0,889.0],[841.0,891.0],[842.0,886.0],[849.0,885.0],[847.0,892.0],[853.0,890.0],[854.0,886.0],[848.0,882.0],[848.0,876.0],[844.0,874.0],[842.0,866.0],[840.0,872.0],[832.0,871.0],[830.0,862.0],[824.0,858.0]]]}},{"type":"Feature","properties":{"class":2},"geometry":{"type":"Polygon","coordinates":[[[873.0,727.0],[870.0,738.0],[872.0,743.0],[867.0,739.0],[865.0,745.0],[868.0,745.0],[871.0,751.0],[875.0,750.0],[874.0,753.0],[867.0,755.0],[864.0,747.0],[861.0,748.0],[862.0,754.0],[859.0,754.0],[860.0,764.0],[870.0,763.0],[873.0,773.0],[869.0,776.0],[869.0,770.0],[858.0,770.0],[856.0,778.0],[849.0,781.0],[852.0,784.0],[850.0,787.0],[855.0,789.0],[853.0,792.0],[846.0,789.0],[846.0,783.0],[837.0,787.0],[835.0,786.0],[839.0,782.0],[831.0,786.0],[822.0,786.0],[822.0,794.0],[819.0,793.0],[814.0,798.0],[813.0,803.0],[816.0,807.0],[812.0,809.0],[815.0,810.0],[809.0,811.0],[808.0,814.0],[804.0,813.0],[806.0,818.0],[816.0,815.0],[811.0,824.0],[819.0,825.0],[821.0,818.0],[827.0,825.0],[833.0,825.0],[823.0,827.0],[821.0,831.0],[828.0,829.0],[837.0,836.0],[831.0,837.0],[832.0,846.0],[836.0,843.0],[838.0,846.0],[845.0,844.0],[845.0,849.0],[835.0,848.0],[840.0,854.0],[839.0,859.0],[844.0,856.0],[841.0,851.0],[846.0,851.0],[848.0,845.0],[853.0,843.0],[852.0,839.0],[861.0,839.0],[857.0,836.0],[852.0,838.0],[853.0,835.0],[862.0,834.0],[863.0,837.0],[863.0,833.0],[855.0,831.0],[861.0,821.0],[873.0,821.0],[874.0,815.0],[880.0,816.0],[884.0,811.0],[887.0,813.0],[892.0,807.0],[890.0,794.0],[883.0,793.0],[882.0,788.0],[885.0,786.0],[884.0,780.0],[891.0,782.0],[890.0,775.0],[885.0,773.0],[888.0,772.0],[884.0,770.0],[886.0,766.0],[877.0,766.0],[877.0,763.0],[882.0,760.0],[879.0,750.0],[882.0,753.0],[885.0,750.0],[889.0,752.0],[888.0,748.0],[892.0,750.0],[895.0,746.0],[892.0,746.0],[894.0,742.0],[888.0,737.0],[885.0,749.0],[876.0,750.0],[878.0,744.0],[872.0,740.0],[875.0,728.0],[873.0,727.0]]]}},{"type":"Feature","properties":{"class":2},"geometry":{"type":"Polygon","coordinates":[[[805.0,704.0],[795.0,711.0],[790.0,721.0],[790.0,730.0],[793.0,733.0],[789.0,734.0],[787.0,726.0],[780.0,740.0],[782.0,751.0],[786.0,754.0],[781.0,761.0],[782.0,766.0],[785.0,762.0],[788.0,767.0],[800.0,769.0],[803.0,765.0],[812.0,764.0],[845.0,767.0],[845.0,753.0],[848.0,750.0],[843.0,749.0],[842.0,742.0],[836.0,738.0],[838.0,733.0],[836.0,734.0],[833.0,727.0],[829.0,726.0],[827.0,705.0],[805.0,704.0]]]}},{"type":"Feature","properties":{"class":2},"geometry":{"type":"Polygon","coordinates":[[[756.0,715.0],[758.0,725.0],[747.0,725.0],[748.0,728.0],[743.0,732.0],[743.0,745.0],[754.0,738.0],[749.0,732.0],[753.0,733.0],[759.0,730.0],[759.0,740.0],[762.0,735.0],[765.0,739.0],[769.0,736.0],[767.0,733.0],[762.0,734.0],[770.0,726.0],[766.0,721.0],[768.0,715.0],[761.0,718.0],[756.0,715.0]]]}},{"type":"Feature","properties":{"class":2},"geometry":{"type":"Polygon","coordinates":[[[818.0,611.0],[816.0,615.0],[823.0,613.0],[826.0,617.0],[810.0,618.0],[809.0,614.0],[799.0,617.0],[803.0,619.0],[796.0,623.0],[799.0,632.0],[791.0,624.0],[777.0,622.0],[776.0,625.0],[779.0,631.0],[775.0,629.0],[773.0,634.0],[791.0,650.0],[802.0,650.0],[803.0,640.0],[798.0,637.0],[798.0,633.0],[808.0,641.0],[812.0,635.0],[817.0,636.0],[819.0,631.0],[816.0,626.0],[823.0,625.0],[824.0,631.0],[830.0,621.0],[831.0,617.0],[826.0,612.0],[818.0,611.0]]]}},{"type":"Feature","properties":{"class":2},"geometry":{"type":"Polygon","coordinates":[[[832.0,559.0],[833.0,569.0],[828.0,568.0],[826.0,573.0],[832.0,572.0],[833.0,590.0],[841.0,597.0],[837.0,601.0],[843.0,603.0],[846.0,599.0],[850.0,603.0],[852.0,597.0],[841.0,594.0],[841.0,591.0],[846.0,589.0],[845.0,584.0],[854.0,585.0],[852.0,592.0],[858.0,593.0],[862.0,589.0],[859.0,583.0],[852.0,576.0],[847.0,577.0],[844.0,565.0],[836.0,559.0],[832.0,559.0]]]}},{"type":"Feature","properties":{"class":2},"geometry":{"type":"Polygon","coordinates":[[[1438.0,218.0],[1437.0,236.0],[1433.0,236.0],[1435.0,226.0],[1432.0,225.0],[1434.0,228.0],[1431.0,230.0],[1431.0,236.0],[1428.0,235.0],[1429.0,231.0],[1424.0,229.0],[1427.0,233.0],[1422.0,235.0],[1422.0,239.0],[1425.0,245.0],[1428.0,245.0],[1429.0,254.0],[1443.0,267.0],[1442.0,257.0],[1447.0,258.0],[1448.0,254.0],[1453.0,257.0],[1454.0,254.0],[1451.0,250.0],[1454.0,242.0],[1446.0,237.0],[1445.0,233.0],[1449.0,231.0],[1446.0,231.0],[1443.0,224.0],[1449.0,223.0],[1448.0,229.0],[1456.0,225.0],[1452.0,221.0],[1441.0,221.0],[1438.0,218.0]]]}},{"type":"Feature","properties":{"class":2},"geometry":{"type":"Polygon","coordinates":[[[1536.0,96.0],[1534.0,104.0],[1529.0,107.0],[1527.0,122.0],[1515.0,149.0],[1517.0,154.0],[1524.0,158.0],[1528.0,169.0],[1533.0,169.0],[1532.0,173.0],[1538.0,176.0],[1538.0,180.0],[1551.0,193.0],[1561.0,177.0],[1564.0,164.0],[1579.0,162.0],[1580.0,159.0],[1577.0,158.0],[1581.0,156.0],[1581.0,152.0],[1576.0,136.0],[1561.0,114.0],[1547.0,100.0],[1536.0,96.0]]]}},{"type":"Feature","properties":{"class":2},"geometry":{"type":"Polygon","coordinates":[[[1601.0,69.0],[1600.0,73.0],[1604.0,73.0],[1604.0,77.0],[1599.0,76.0],[1593.0,87.0],[1586.0,86.0],[1581.0,91.0],[1581.0,94.0],[1593.0,100.0],[1593.0,104.0],[1582.0,109.0],[1590.0,109.0],[1589.0,117.0],[1594.0,117.0],[1587.0,127.0],[1587.0,135.0],[1596.0,131.0],[1607.0,118.0],[1604.0,115.0],[1610.0,110.0],[1610.0,104.0],[1615.0,104.0],[1611.0,110.0],[1612.0,112.0],[1623.0,102.0],[1618.0,99.0],[1626.0,96.0],[1626.0,93.0],[1618.0,88.0],[1619.0,84.0],[1613.0,85.0],[1612.0,80.0],[1609.0,84.0],[1600.0,81.0],[1607.0,77.0],[1605.0,70.0],[1601.0,69.0]]]}},{"type":"Feature","properties":{"class":2},"geometry":{"type":"Polygon","coordinates":[[[1395.0,45.0],[1393.0,72.0],[1382.0,83.0],[1385.0,99.0],[1393.0,102.0],[1402.0,96.0],[1402.0,101.0],[1407.0,102.0],[1411.0,100.0],[1408.0,95.0],[1410.0,92.0],[1414.0,99.0],[1417.0,99.0],[1418.0,96.0],[1414.0,95.0],[1416.0,91.0],[1425.0,88.0],[1425.0,80.0],[1429.0,85.0],[1434.0,83.0],[1427.0,77.0],[1433.0,71.0],[1426.0,65.0],[1424.0,67.0],[1422.0,61.0],[1418.0,64.0],[1420.0,58.0],[1415.0,56.0],[1411.0,60.0],[1410.0,53.0],[1399.0,55.0],[1395.0,48.0],[1402.0,45.0],[1395.0,45.0]]]}},{"type":"Feature","properties":{"class":2},"geometry":{"type":"Polygon","coordinates":[[[1327.0,62.0],[1319.0,63.0],[1315.0,73.0],[1311.0,71.0],[1307.0,79.0],[1299.0,78.0],[1273.0,87.0],[1271.0,96.0],[1273.0,95.0],[1276.0,103.0],[1280.0,105.0],[1283.0,100.0],[1288.0,103.0],[1286.0,99.0],[1288.0,97.0],[1299.0,105.0],[1306.0,97.0],[1320.0,99.0],[1319.0,94.0],[1326.0,95.0],[1324.0,101.0],[1330.0,100.0],[1330.0,94.0],[1334.0,91.0],[1328.0,89.0],[1334.0,88.0],[1338.0,93.0],[1348.0,83.0],[1347.0,79.0],[1344.0,79.0],[1345.0,74.0],[1356.0,73.0],[1363.0,66.0],[1363.0,62.0],[1360.0,61.0],[1355.0,61.0],[1351.0,65.0],[1345.0,62.0],[1334.0,66.0],[1331.0,62.0],[1326.0,65.0],[1327.0,62.0]]]}},{"type":"Feature","properties":{"class":2},"geometry":{"type":"Polygon","coordinates":[[[1157.0,231.0],[1160.0,233.0],[1160.0,240.0],[1172.0,244.0],[1173.0,248.0],[1170.0,251.0],[1178.0,248.0],[1176.0,256.0],[1171.0,258.0],[1172.0,256.0],[1171.0,252.0],[1163.0,253.0],[1160.0,257.0],[1163.0,257.0],[1162.0,265.0],[1152.0,259.0],[1152.0,264.0],[1160.0,267.0],[1156.0,267.0],[1157.0,270.0],[1151.0,273.0],[1151.0,280.0],[1148.0,276.0],[1149.0,271.0],[1146.0,271.0],[1151.0,265.0],[1140.0,265.0],[1138.0,261.0],[1136.0,273.0],[1141.0,277.0],[1141.0,281.0],[1144.0,278.0],[1146.0,288.0],[1154.0,289.0],[1159.0,285.0],[1159.0,288.0],[1169.0,293.0],[1168.0,295.0],[1170.0,292.0],[1179.0,295.0],[1174.0,290.0],[1181.0,287.0],[1175.0,286.0],[1179.0,280.0],[1189.0,278.0],[1187.0,290.0],[1183.0,288.0],[1187.0,292.0],[1184.0,293.0],[1187.0,296.0],[1185.0,298.0],[1184.0,295.0],[1183.0,300.0],[1190.0,301.0],[1188.0,309.0],[1192.0,312.0],[1191.0,308.0],[1194.0,306.0],[1191.0,301.0],[1195.0,298.0],[1188.0,289.0],[1194.0,291.0],[1194.0,288.0],[1198.0,289.0],[1203.0,281.0],[1206.0,281.0],[1206.0,278.0],[1200.0,280.0],[1198.0,274.0],[1193.0,273.0],[1190.0,277.0],[1190.0,272.0],[1185.0,272.0],[1185.0,269.0],[1190.0,267.0],[1191.0,260.0],[1197.0,259.0],[1197.0,256.0],[1187.0,257.0],[1188.0,253.0],[1183.0,252.0],[1182.0,247.0],[1175.0,247.0],[1176.0,244.0],[1169.0,239.0],[1169.0,233.0],[1157.0,231.0]]]}},{"type":"Feature","properties":{"class":2},"geometry":{"type":"Polygon","coordinates":[[[1053.0,398.0],[1056.0,404.0],[1051.0,413.0],[1053.0,417.0],[1055.0,417.0],[1053.0,411.0],[1060.0,398.0],[1053.0,398.0]]]}},{"type":"Feature","properties":{"class":2},"geometry":{"type":"Polygon","coordinates":[[[984.0,488.0],[984.0,496.0],[991.0,501.0],[989.0,510.0],[979.0,518.0],[977.0,515.0],[966.0,515.0],[966.0,520.0],[959.0,523.0],[959.0,527.0],[952.0,526.0],[955.0,534.0],[966.0,533.0],[974.0,538.0],[976.0,536.0],[971.0,535.0],[968.0,529.0],[961.0,531.0],[963.0,524.0],[975.0,521.0],[984.0,526.0],[997.0,515.0],[1001.0,519.0],[1001.0,511.0],[998.0,510.0],[1001.0,502.0],[997.0,504.0],[998.0,508.0],[992.0,508.0],[991.0,498.0],[995.0,492.0],[989.0,492.0],[984.0,488.0]]]}},{"type":"Feature","properties":{"class":2},"geometry":{"type":"Polygon","coordinates":[[[968.0,550.0],[959.0,566.0],[965.0,566.0],[967.0,560.0],[971.0,565.0],[977.0,565.0],[979.0,572.0],[981.0,569.0],[986.0,573.0],[991.0,572.0],[980.0,561.0],[968.0,558.0],[968.0,555.0],[972.0,555.0],[968.0,550.0]]]}},{"type":"Feature","properties":{"class":2},"geometry":{"type":"Polygon","coordinates":[[[1019.0,581.0],[1006.0,590.0],[1006.0,598.0],[1011.0,599.0],[1009.0,611.0],[1013.0,613.0],[1013.0,617.0],[1025.0,615.0],[1022.0,622.0],[1014.0,623.0],[1025.0,624.0],[1025.0,630.0],[1029.0,634.0],[1033.0,629.0],[1036.0,630.0],[1037.0,636.0],[1047.0,632.0],[1053.0,634.0],[1055.0,628.0],[1058.0,632.0],[1057.0,639.0],[1062.0,639.0],[1065.0,624.0],[1075.0,618.0],[1075.0,612.0],[1062.0,610.0],[1060.0,613.0],[1060.0,610.0],[1056.0,609.0],[1061.0,601.0],[1057.0,598.0],[1059.0,590.0],[1051.0,585.0],[1049.0,589.0],[1038.0,588.0],[1036.0,593.0],[1027.0,593.0],[1029.0,584.0],[1019.0,581.0]]]}},{"type":"Feature","properties":{"class":2},"geometry":{"type":"Polygon","coordinates":[[[1098.0,593.0],[1096.0,596.0],[1092.0,594.0],[1091.0,599.0],[1088.0,595.0],[1072.0,596.0],[1072.0,603.0],[1075.0,603.0],[1085.0,616.0],[1087.0,624.0],[1091.0,624.0],[1091.0,630.0],[1087.0,634.0],[1088.0,642.0],[1091.0,643.0],[1090.0,636.0],[1099.0,634.0],[1101.0,639.0],[1114.0,647.0],[1113.0,651.0],[1117.0,648.0],[1124.0,649.0],[1126.0,646.0],[1140.0,650.0],[1139.0,646.0],[1145.0,642.0],[1145.0,632.0],[1140.0,630.0],[1144.0,629.0],[1145.0,625.0],[1135.0,597.0],[1130.0,598.0],[1128.0,609.0],[1120.0,610.0],[1121.0,602.0],[1116.0,599.0],[1110.0,600.0],[1108.0,596.0],[1106.0,602.0],[1105.0,597.0],[1098.0,593.0]]]}},{"type":"Feature","properties":{"class":2},"geometry":{"type":"Polygon","coordinates":[[[1149.0,555.0],[1142.0,558.0],[1137.0,576.0],[1144.0,570.0],[1139.0,587.0],[1147.0,600.0],[1148.0,623.0],[1154.0,625.0],[1151.0,628.0],[1155.0,637.0],[1154.0,643.0],[1160.0,646.0],[1161.0,652.0],[1164.0,653.0],[1180.0,640.0],[1182.0,633.0],[1187.0,631.0],[1187.0,625.0],[1192.0,622.0],[1195.0,615.0],[1196.0,600.0],[1189.0,598.0],[1181.0,578.0],[1177.0,576.0],[1174.0,579.0],[1174.0,573.0],[1170.0,570.0],[1150.0,566.0],[1145.0,569.0],[1148.0,562.0],[1144.0,559.0],[1158.0,558.0],[1149.0,555.0]]]}},{"type":"Feature","properties":{"class":2},"geometry":{"type":"Polygon","coordinates":[[[1082.0,548.0],[1081.0,551.0],[1087.0,561.0],[1087.0,564.0],[1083.0,562.0],[1083.0,567.0],[1090.0,569.0],[1091.0,565.0],[1102.0,566.0],[1099.0,561.0],[1094.0,561.0],[1097.0,557.0],[1082.0,548.0]]]}},{"type":"Feature","properties":{"class":2},"geometry":{"type":"Polygon","coordinates":[[[974.0,566.0],[973.0,569.0],[966.0,570.0],[966.0,573.0],[958.0,573.0],[950.0,579.0],[958.0,578.0],[961.0,585.0],[967.0,583.0],[969.0,571.0],[976.0,573.0],[974.0,566.0]]]}},{"type":"Feature","properties":{"class":2},"geometry":{"type":"Polygon","coordinates":[[[949.0,542.0],[942.0,545.0],[944.0,551.0],[938.0,552.0],[936.0,559.0],[932.0,557.0],[935.0,549.0],[931.0,552.0],[930.0,561.0],[935.0,564.0],[935.0,569.0],[927.0,568.0],[927.0,573.0],[946.0,571.0],[947.0,577.0],[950.0,568.0],[960.0,564.0],[965.0,552.0],[959.0,554.0],[959.0,549.0],[955.0,548.0],[958.0,546.0],[958.0,542.0],[957.0,545.0],[949.0,542.0]]]}},{"type":"Feature","properties":{"class":2},"geometry":{"type":"Polygon","coordinates":[[[918.0,494.0],[909.0,499.0],[910.0,505.0],[906.0,512.0],[906.0,506.0],[897.0,508.0],[894.0,501.0],[888.0,505.0],[878.0,504.0],[878.0,508.0],[884.0,506.0],[885.0,509.0],[877.0,513.0],[871.0,502.0],[853.0,500.0],[853.0,504.0],[848.0,505.0],[844.0,525.0],[839.0,530.0],[825.0,532.0],[822.0,527.0],[823.0,542.0],[829.0,547.0],[835.0,547.0],[843.0,542.0],[868.0,542.0],[886.0,536.0],[885.0,530.0],[880.0,527.0],[881.0,522.0],[877.0,514.0],[889.0,525.0],[889.0,508.0],[894.0,512.0],[895.0,519.0],[900.0,519.0],[897.0,522.0],[902.0,524.0],[910.0,520.0],[913.0,513.0],[916.0,517.0],[930.0,515.0],[930.0,510.0],[923.0,512.0],[927.0,509.0],[923.0,508.0],[924.0,502.0],[923.0,495.0],[918.0,494.0]]]}},{"type":"Feature","properties":{"class":2},"geometry":{"type":"Polygon","coordinates":[[[607.0,266.0],[600.0,274.0],[600.0,281.0],[604.0,281.0],[601.0,286.0],[608.0,294.0],[612.0,293.0],[609.0,296.0],[609.0,303.0],[613.0,304.0],[614.0,312.0],[618.0,307.0],[626.0,311.0],[626.0,317.0],[621.0,310.0],[619.0,316.0],[628.0,320.0],[633.0,314.0],[641.0,314.0],[655.0,322.0],[666.0,322.0],[674.0,314.0],[676.0,304.0],[673.0,299.0],[676.0,297.0],[667.0,288.0],[669.0,284.0],[666.0,282.0],[666.0,271.0],[658.0,267.0],[643.0,267.0],[632.0,271.0],[607.0,266.0]]]}},{"type":"Feature","properties":{"class":2},"geometry":{"type":"Polygon","coordinates":[[[600.0,332.0],[587.0,338.0],[587.0,343.0],[577.0,344.0],[576.0,349.0],[580.0,348.0],[583.0,352.0],[580.0,353.0],[580.0,357.0],[570.0,352.0],[558.0,366.0],[558.0,383.0],[554.0,384.0],[557.0,391.0],[556.0,399.0],[564.0,400.0],[568.0,395.0],[576.0,394.0],[588.0,403.0],[596.0,403.0],[602.0,409.0],[613.0,411.0],[615.0,408.0],[619.0,409.0],[630.0,395.0],[638.0,392.0],[635.0,388.0],[640.0,387.0],[650.0,405.0],[657.0,404.0],[659.0,400.0],[663.0,401.0],[667.0,387.0],[661.0,387.0],[662.0,399.0],[658.0,398.0],[659.0,389.0],[656.0,392.0],[652.0,390.0],[653.0,384.0],[649.0,389.0],[643.0,390.0],[643.0,375.0],[640.0,374.0],[639.0,365.0],[636.0,365.0],[637.0,344.0],[630.0,347.0],[629.0,338.0],[633.0,334.0],[630.0,333.0],[627.0,343.0],[623.0,344.0],[617.0,336.0],[600.0,332.0]]]}},{"type":"Feature","properties":{"class":2},"geometry":{"type":"Polygon","coordinates":[[[646.0,363.0],[650.0,372.0],[645.0,372.0],[648.0,380.0],[645.0,378.0],[644.0,381.0],[650.0,381.0],[650.0,374.0],[654.0,382.0],[657.0,382.0],[658.0,377.0],[663.0,381.0],[662.0,386.0],[668.0,385.0],[671.0,395.0],[680.0,398.0],[665.0,399.0],[667.0,405.0],[672.0,401.0],[686.0,403.0],[687.0,418.0],[683.0,419.0],[693.0,420.0],[694.0,413.0],[689.0,404.0],[690.0,400.0],[684.0,393.0],[677.0,396.0],[677.0,383.0],[687.0,378.0],[688.0,371.0],[692.0,380.0],[695.0,380.0],[693.0,368.0],[684.0,366.0],[685.0,374.0],[679.0,370.0],[676.0,375.0],[671.0,375.0],[671.0,369.0],[661.0,374.0],[654.0,363.0],[651.0,367.0],[646.0,363.0]]]}},{"type":"Feature","properties":{"class":2},"geometry":{"type":"Polygon","coordinates":[[[737.0,373.0],[732.0,387.0],[728.0,386.0],[729.0,379.0],[722.0,380.0],[723.0,386.0],[726.0,387.0],[725.0,391.0],[721.0,391.0],[722.0,396.0],[711.0,392.0],[710.0,396.0],[706.0,397.0],[708.0,392.0],[702.0,393.0],[701.0,386.0],[694.0,388.0],[697.0,396.0],[693.0,396.0],[693.0,401.0],[689.0,402.0],[692.0,409.0],[695.0,410.0],[696.0,417.0],[692.0,421.0],[694.0,424.0],[698.0,421.0],[697.0,403.0],[700.0,402.0],[709.0,410.0],[702.0,411.0],[701.0,420.0],[705.0,414.0],[719.0,414.0],[717.0,423.0],[721.0,425.0],[717.0,427.0],[719.0,429.0],[716.0,433.0],[720.0,429.0],[722.0,432.0],[727.0,430.0],[724.0,427.0],[728.0,421.0],[726.0,417.0],[721.0,417.0],[723.0,411.0],[721.0,406.0],[718.0,407.0],[718.0,399.0],[726.0,394.0],[727.0,389.0],[738.0,391.0],[740.0,377.0],[737.0,373.0]]]}},{"type":"Feature","properties":{"class":2},"geometry":{"type":"Polygon","coordinates":[[[604.0,497.0],[599.0,502.0],[610.0,507.0],[606.0,509.0],[608.0,513.0],[603.0,515.0],[604.0,519.0],[612.0,519.0],[615.0,516.0],[613.0,513.0],[619.0,512.0],[618.0,510.0],[625.0,516.0],[622.0,508.0],[632.0,507.0],[625.0,505.0],[630.0,502.0],[623.0,499.0],[615.0,503.0],[616.0,498.0],[604.0,497.0]]]}},{"type":"Feature","properties":{"class":2},"geometry":{"type":"Polygon","coordinates":[[[637.0,518.0],[637.0,524.0],[628.0,527.0],[626.0,534.0],[631.0,538.0],[642.0,539.0],[641.0,534.0],[645.0,535.0],[645.0,539.0],[651.0,538.0],[650.0,533.0],[646.0,534.0],[640.0,531.0],[640.0,527.0],[637.0,527.0],[640.0,522.0],[637.0,518.0]]]}},{"type":"Feature","properties":{"class":1},"geometry":{"type":"Polygon","coordinates":[[[445.0,338.0],[443.0,339.0],[444.0,342.0],[437.0,346.0],[439.0,348.0],[437.0,355.0],[445.0,358.0],[445.0,366.0],[447.0,367.0],[460.0,357.0],[466.0,342.0],[461.0,341.0],[460.0,347.0],[459.0,339.0],[452.0,345.0],[451.0,339.0],[445.0,338.0]]]}},{"type":"Feature","properties":{"class":1},"geometry":{"type":"Polygon","coordinates":[[[644.0,44.0],[639.0,50.0],[633.0,49.0],[629.0,55.0],[630.0,61.0],[633.0,64.0],[635.0,64.0],[636.0,58.0],[639.0,58.0],[641.0,55.0],[646.0,58.0],[651.0,56.0],[653.0,59.0],[656.0,57.0],[656.0,52.0],[649.0,52.0],[650.0,48.0],[647.0,44.0],[644.0,44.0]]]}},{"type":"Feature","properties":{"class":1},"geometry":{"type":"Polygon","coordinates":[[[609.0,63.0],[604.0,66.0],[604.0,71.0],[601.0,68.0],[594.0,67.0],[591.0,70.0],[591.0,76.0],[587.0,72.0],[586.0,83.0],[583.0,83.0],[582.0,79.0],[580.0,90.0],[582.0,97.0],[589.0,106.0],[597.0,105.0],[595.0,96.0],[599.0,92.0],[604.0,78.0],[607.0,77.0],[606.0,72.0],[609.0,69.0],[614.0,69.0],[613.0,64.0],[609.0,63.0]]]}},{"type":"Feature","properties":{"class":1},"geometry":{"type":"Polygon","coordinates":[[[380.0,7.0],[380.0,10.0],[376.0,12.0],[374.0,10.0],[364.0,14.0],[365.0,20.0],[362.0,21.0],[363.0,24.0],[364.0,22.0],[367.0,24.0],[366.0,27.0],[369.0,28.0],[368.0,31.0],[370.0,30.0],[370.0,38.0],[375.0,43.0],[376.0,36.0],[378.0,33.0],[381.0,33.0],[381.0,23.0],[384.0,24.0],[385.0,28.0],[388.0,25.0],[391.0,27.0],[398.0,25.0],[401.0,28.0],[401.0,33.0],[403.0,33.0],[403.0,30.0],[409.0,31.0],[406.0,25.0],[398.0,21.0],[394.0,21.0],[391.0,24.0],[386.0,21.0],[386.0,18.0],[381.0,21.0],[379.0,13.0],[384.0,9.0],[380.0,7.0]]]}},{"type":"Feature","properties":{"class":1},"geometry":{"type":"Polygon","coordinates":[[[193.0,936.0],[191.0,940.0],[187.0,938.0],[184.0,940.0],[187.0,941.0],[188.0,947.0],[190.0,943.0],[195.0,942.0],[195.0,937.0],[193.0,936.0]]]}},{"type":"Feature","properties":{"class":1},"geometry":{"type":"Polygon","coordinates":[[[331.0,944.0],[324.0,946.0],[323.0,951.0],[336.0,957.0],[338.0,951.0],[331.0,944.0]]]}},{"type":"Feature","properties":{"class":1},"geometry":{"type":"Polygon","coordinates":[[[446.0,928.0],[440.0,938.0],[445.0,946.0],[448.0,944.0],[454.0,946.0],[456.0,938.0],[454.0,939.0],[455.0,936.0],[452.0,933.0],[447.0,933.0],[448.0,929.0],[446.0,928.0]]]}},{"type":"Feature","properties":{"class":1},"geometry":{"type":"Polygon","coordinates":[[[473.0,686.0],[471.0,692.0],[464.0,694.0],[465.0,699.0],[469.0,698.0],[468.0,701.0],[472.0,701.0],[471.0,704.0],[475.0,704.0],[478.0,707.0],[477.0,710.0],[482.0,710.0],[482.0,715.0],[491.0,713.0],[490.0,709.0],[486.0,707.0],[487.0,703.0],[477.0,699.0],[474.0,693.0],[476.0,689.0],[473.0,686.0]]]}},{"type":"Feature","properties":{"class":1},"geometry":{"type":"Polygon","coordinates":[[[524.0,536.0],[527.0,546.0],[537.0,544.0],[537.0,539.0],[534.0,536.0],[524.0,536.0]]]}},{"type":"Feature","properties":{"class":1},"geometry":{"type":"Polygon","coordinates":[[[1213.0,616.0],[1205.0,617.0],[1205.0,620.0],[1201.0,618.0],[1199.0,621.0],[1196.0,621.0],[1191.0,628.0],[1195.0,629.0],[1192.0,636.0],[1190.0,635.0],[1188.0,638.0],[1188.0,643.0],[1193.0,645.0],[1191.0,646.0],[1192.0,651.0],[1198.0,652.0],[1204.0,651.0],[1205.0,647.0],[1203.0,644.0],[1206.0,644.0],[1209.0,638.0],[1209.0,632.0],[1207.0,632.0],[1208.0,624.0],[1213.0,619.0],[1213.0,616.0]]]}},{"type":"Feature","properties":{"class":1},"geometry":{"type":"Polygon","coordinates":[[[1509.0,756.0],[1508.0,761.0],[1504.0,761.0],[1505.0,765.0],[1502.0,768.0],[1500.0,768.0],[1499.0,763.0],[1490.0,768.0],[1490.0,764.0],[1486.0,762.0],[1486.0,769.0],[1484.0,771.0],[1487.0,771.0],[1487.0,773.0],[1488.0,771.0],[1493.0,771.0],[1492.0,777.0],[1498.0,785.0],[1501.0,780.0],[1503.0,780.0],[1502.0,781.0],[1503.0,783.0],[1504.0,779.0],[1507.0,779.0],[1507.0,776.0],[1503.0,775.0],[1507.0,772.0],[1504.0,767.0],[1509.0,767.0],[1508.0,764.0],[1511.0,760.0],[1509.0,756.0]]]}},{"type":"Feature","properties":{"class":1},"geometry":{"type":"Polygon","coordinates":[[[1502.0,641.0],[1495.0,641.0],[1495.0,648.0],[1500.0,654.0],[1507.0,655.0],[1506.0,653.0],[1510.0,651.0],[1505.0,650.0],[1506.0,648.0],[1502.0,645.0],[1502.0,641.0]]]}},{"type":"Feature","properties":{"class":1},"geometry":{"type":"Polygon","coordinates":[[[1449.0,646.0],[1451.0,654.0],[1458.0,658.0],[1460.0,654.0],[1458.0,648.0],[1456.0,646.0],[1449.0,646.0]]]}},{"type":"Feature","properties":{"class":1},"geometry":{"type":"Polygon","coordinates":[[[1166.0,429.0],[1166.0,434.0],[1162.0,441.0],[1169.0,445.0],[1169.0,448.0],[1172.0,450.0],[1170.0,446.0],[1174.0,447.0],[1174.0,444.0],[1177.0,442.0],[1173.0,437.0],[1179.0,436.0],[1179.0,433.0],[1177.0,431.0],[1171.0,433.0],[1170.0,429.0],[1166.0,429.0]]]}},{"type":"Feature","properties":{"class":1},"geometry":{"type":"Polygon","coordinates":[[[1325.0,377.0],[1320.0,386.0],[1319.0,393.0],[1325.0,392.0],[1330.0,402.0],[1333.0,402.0],[1333.0,399.0],[1332.0,396.0],[1328.0,396.0],[1327.0,391.0],[1329.0,389.0],[1334.0,392.0],[1335.0,396.0],[1338.0,396.0],[1337.0,390.0],[1345.0,393.0],[1352.0,386.0],[1355.0,386.0],[1355.0,384.0],[1345.0,383.0],[1344.0,389.0],[1340.0,389.0],[1339.0,382.0],[1333.0,380.0],[1334.0,386.0],[1331.0,388.0],[1329.0,386.0],[1330.0,378.0],[1325.0,377.0]]]}},{"type":"Feature","properties":{"class":1},"geometry":{"type":"Polygon","coordinates":[[[840.0,6.0],[838.0,18.0],[834.0,20.0],[836.0,24.0],[829.0,31.0],[831.0,35.0],[846.0,32.0],[845.0,29.0],[842.0,29.0],[839.0,21.0],[839.0,18.0],[843.0,15.0],[843.0,10.0],[840.0,6.0]]]}},{"type":"Feature","properties":{"class":1},"geometry":{"type":"Polygon","coordinates":[[[326.0,155.0],[324.0,162.0],[329.0,164.0],[330.0,167.0],[336.0,167.0],[337.0,163.0],[345.0,161.0],[345.0,158.0],[339.0,155.0],[326.0,155.0]]]}}]}