{"type":"FeatureCollection","features":[{"type":"Feature","properties":{"class":2},"geometry":{"type":"Polygon","coordinates":[[[958.0,479.0],[945.0,478.0],[943.0,483.0],[939.0,478.0],[910.0,478.0],[895.0,480.0],[893.0,485.0],[888.0,483.0],[892.0,483.0],[891.0,479.0],[876.0,479.0],[866.0,484.0],[863.0,490.0],[864.0,495.0],[861.0,496.0],[863.0,504.0],[858.0,508.0],[858.0,511.0],[863.0,513.0],[862.0,517.0],[866.0,519.0],[861.0,525.0],[871.0,524.0],[871.0,528.0],[863.0,532.0],[864.0,536.0],[862.0,536.0],[862.0,531.0],[864.0,528.0],[859.0,527.0],[859.0,533.0],[865.0,545.0],[874.0,545.0],[873.0,549.0],[877.0,555.0],[888.0,558.0],[886.0,555.0],[896.0,551.0],[897.0,546.0],[905.0,549.0],[905.0,545.0],[913.0,544.0],[910.0,543.0],[912.0,539.0],[907.0,539.0],[907.0,534.0],[914.0,538.0],[912.0,532.0],[916.0,532.0],[918.0,535.0],[915.0,541.0],[924.0,540.0],[919.0,539.0],[921.0,537.0],[921.0,532.0],[926.0,534.0],[929.0,530.0],[923.0,526.0],[919.0,529.0],[919.0,525.0],[915.0,524.0],[907.0,525.0],[906.0,522.0],[907.0,519.0],[915.0,523.0],[925.0,519.0],[906.0,517.0],[905.0,521.0],[905.0,515.0],[909.0,515.0],[912.0,510.0],[919.0,510.0],[915.0,517.0],[920.0,516.0],[925.0,511.0],[921.0,508.0],[923.0,505.0],[925.0,509.0],[930.0,507.0],[930.0,513.0],[925.0,516.0],[933.0,515.0],[932.0,523.0],[936.0,518.0],[934.0,513.0],[938.0,513.0],[939.0,516.0],[948.0,513.0],[951.0,515.0],[947.0,517.0],[948.0,520.0],[952.0,516.0],[962.0,519.0],[973.0,514.0],[975.0,511.0],[969.0,509.0],[975.0,508.0],[973.0,505.0],[976.0,501.0],[986.0,495.0],[987.0,490.0],[981.0,487.0],[983.0,481.0],[974.0,481.0],[970.0,484.0],[965.0,481.0],[964.0,487.0],[960.0,485.0],[960.0,490.0],[956.0,489.0],[953.0,492.0],[952.0,489.0],[957.0,486.0],[958.0,479.0]]]}},{"type":"Feature","properties":{"class":2},"geometry":{"type":"Polygon","coordinates":[[[944.0,400.0],[934.0,408.0],[899.0,414.0],[894.0,412.0],[895.0,414.0],[888.0,415.0],[858.0,415.0],[852.0,416.0],[850.0,420.0],[832.0,420.0],[833.0,424.0],[823.0,421.0],[823.0,427.0],[818.0,427.0],[817.0,424.0],[811.0,431.0],[806.0,427.0],[807.0,430.0],[797.0,436.0],[799.0,450.0],[790.0,446.0],[789.0,448.0],[793.0,453.0],[803.0,455.0],[807.0,451.0],[819.0,450.0],[839.0,440.0],[855.0,437.0],[855.0,440.0],[847.0,442.0],[846.0,446.0],[856.0,451.0],[857.0,439.0],[872.0,435.0],[886.0,438.0],[884.0,434.0],[900.0,437.0],[906.0,447.0],[904.0,472.0],[909.0,472.0],[910.0,475.0],[930.0,475.0],[934.0,471.0],[945.0,469.0],[956.0,470.0],[957.0,468.0],[947.0,463.0],[953.0,461.0],[954.0,457.0],[958.0,458.0],[964.0,450.0],[968.0,450.0],[969.0,458.0],[976.0,454.0],[976.0,450.0],[980.0,455.0],[982.0,447.0],[993.0,449.0],[988.0,453.0],[997.0,455.0],[1003.0,453.0],[1002.0,450.0],[1010.0,440.0],[1002.0,440.0],[998.0,433.0],[994.0,433.0],[994.0,428.0],[988.0,421.0],[985.0,422.0],[986.0,417.0],[980.0,417.0],[976.0,413.0],[977.0,405.0],[944.0,400.0]]]}},{"type":"Feature","properties":{"class":2},"geometry":{"type":"Polygon","coordinates":[[[800.0,192.0],[793.0,196.0],[796.0,200.0],[788.0,199.0],[783.0,210.0],[779.0,211.0],[780.0,222.0],[771.0,224.0],[771.0,228.0],[767.0,229.0],[769.0,233.0],[764.0,237.0],[774.0,248.0],[783.0,252.0],[794.0,253.0],[797.0,249.0],[794.0,246.0],[800.0,246.0],[798.0,242.0],[810.0,245.0],[806.0,246.0],[807.0,248.0],[823.0,249.0],[823.0,252.0],[811.0,252.0],[813.0,260.0],[810.0,261.0],[814.0,262.0],[818.0,261.0],[818.0,255.0],[826.0,254.0],[829.0,249.0],[845.0,241.0],[848.0,234.0],[832.0,225.0],[814.0,208.0],[807.0,208.0],[811.0,204.0],[806.0,204.0],[808.0,199.0],[800.0,192.0]]]}},{"type":"Feature","properties":{"class":2},"geometry":{"type":"Polygon","coordinates":[[[840.0,70.0],[839.0,74.0],[852.0,74.0],[851.0,83.0],[839.0,80.0],[837.0,84.0],[851.0,87.0],[841.0,89.0],[838.0,94.0],[838.0,86.0],[832.0,87.0],[831.0,91.0],[834.0,91.0],[835.0,96.0],[832.0,102.0],[836.0,107.0],[833.0,121.0],[840.0,113.0],[847.0,117.0],[854.0,114.0],[846.0,114.0],[847.0,110.0],[864.0,112.0],[865.0,107.0],[870.0,107.0],[868.0,103.0],[862.0,102.0],[862.0,99.0],[866.0,98.0],[871.0,102.0],[871.0,107.0],[876.0,108.0],[875.0,113.0],[873.0,110.0],[866.0,111.0],[870.0,119.0],[875.0,121.0],[866.0,122.0],[866.0,126.0],[861.0,127.0],[866.0,132.0],[868.0,127.0],[874.0,132.0],[873.0,122.0],[886.0,127.0],[887.0,158.0],[877.0,160.0],[876.0,166.0],[862.0,168.0],[840.0,165.0],[828.0,160.0],[831.0,171.0],[825.0,172.0],[824.0,166.0],[820.0,168.0],[823.0,161.0],[820.0,158.0],[821.0,151.0],[825.0,145.0],[822.0,141.0],[814.0,147.0],[794.0,149.0],[789.0,156.0],[776.0,157.0],[787.0,164.0],[792.0,158.0],[804.0,164.0],[806.0,159.0],[809.0,160.0],[808.0,165.0],[813.0,167.0],[813.0,170.0],[804.0,171.0],[804.0,176.0],[800.0,172.0],[800.0,179.0],[805.0,182.0],[803.0,189.0],[821.0,208.0],[833.0,208.0],[835.0,212.0],[831.0,214.0],[835.0,215.0],[840.0,224.0],[855.0,225.0],[854.0,221.0],[848.0,219.0],[849.0,213.0],[853.0,211.0],[863.0,214.0],[874.0,213.0],[874.0,217.0],[894.0,218.0],[909.0,204.0],[885.0,215.0],[879.0,209.0],[884.0,207.0],[887.0,212.0],[890.0,206.0],[900.0,203.0],[901.0,196.0],[909.0,195.0],[908.0,190.0],[910.0,193.0],[916.0,193.0],[916.0,190.0],[920.0,190.0],[921.0,185.0],[930.0,179.0],[933.0,182.0],[944.0,176.0],[950.0,177.0],[972.0,169.0],[990.0,173.0],[988.0,179.0],[994.0,177.0],[991.0,170.0],[986.0,167.0],[984.0,158.0],[974.0,159.0],[971.0,155.0],[964.0,163.0],[963.0,154.0],[966.0,152.0],[958.0,154.0],[952.0,149.0],[943.0,154.0],[927.0,154.0],[923.0,158.0],[918.0,156.0],[917.0,146.0],[908.0,143.0],[909.0,139.0],[898.0,134.0],[897.0,128.0],[894.0,128.0],[900.0,126.0],[903.0,117.0],[911.0,119.0],[908.0,118.0],[908.0,113.0],[898.0,115.0],[899.0,111.0],[915.0,110.0],[894.0,110.0],[891.0,112.0],[894.0,116.0],[892.0,119.0],[888.0,110.0],[879.0,107.0],[867.0,95.0],[868.0,89.0],[865.0,89.0],[862.0,85.0],[869.0,88.0],[868.0,78.0],[862.0,79.0],[867.0,71.0],[863.0,74.0],[857.0,71.0],[858.0,79.0],[855.0,79.0],[856.0,75.0],[851.0,71.0],[840.0,70.0]]]}},{"type":"Feature","properties":{"class":2},"geometry":{"type":"Polygon","coordinates":[[[509.0,291.0],[507.0,295.0],[512.0,296.0],[501.0,309.0],[502.0,315.0],[497.0,316.0],[497.0,312.0],[494.0,312.0],[490.0,319.0],[489.0,313.0],[496.0,307.0],[487.0,310.0],[491.0,303.0],[486.0,303.0],[485.0,309.0],[482.0,308.0],[484.0,304.0],[478.0,304.0],[478.0,313.0],[484.0,313.0],[478.0,318.0],[474.0,310.0],[475.0,303.0],[471.0,302.0],[464.0,317.0],[466.0,327.0],[471.0,326.0],[468.0,330.0],[472.0,331.0],[473.0,335.0],[478.0,332.0],[480.0,336.0],[485.0,337.0],[476.0,341.0],[476.0,344.0],[485.0,341.0],[485.0,348.0],[480.0,348.0],[484.0,355.0],[480.0,358.0],[479.0,366.0],[483.0,372.0],[491.0,375.0],[496.0,386.0],[507.0,384.0],[510.0,380.0],[519.0,386.0],[520.0,376.0],[532.0,369.0],[531.0,355.0],[543.0,349.0],[542.0,334.0],[545.0,330.0],[540.0,311.0],[541.0,303.0],[529.0,302.0],[516.0,292.0],[509.0,291.0]]]}},{"type":"Feature","properties":{"class":2},"geometry":{"type":"Polygon","coordinates":[[[465.0,373.0],[454.0,374.0],[453.0,377.0],[456.0,385.0],[464.0,385.0],[463.0,392.0],[460.0,392.0],[462.0,388.0],[459.0,389.0],[457.0,394.0],[454.0,392.0],[445.0,402.0],[458.0,404.0],[459.0,399.0],[462.0,401.0],[466.0,398.0],[464.0,401.0],[467.0,401.0],[481.0,393.0],[478.0,389.0],[479.0,383.0],[473.0,378.0],[474.0,375.0],[468.0,377.0],[465.0,373.0]]]}},{"type":"Feature","properties":{"class":2},"geometry":{"type":"Polygon","coordinates":[[[344.0,388.0],[341.0,390.0],[342.0,394.0],[335.0,393.0],[333.0,400.0],[321.0,405.0],[309.0,399.0],[303.0,401.0],[295.0,397.0],[293.0,403.0],[283.0,412.0],[283.0,419.0],[278.0,420.0],[272.0,429.0],[276.0,421.0],[274.0,412.0],[265.0,424.0],[267.0,432.0],[263.0,432.0],[263.0,460.0],[266.0,461.0],[274.0,450.0],[282.0,450.0],[280.0,453.0],[288.0,457.0],[288.0,461.0],[283.0,463.0],[285.0,466.0],[281.0,476.0],[284.0,480.0],[293.0,477.0],[290.0,488.0],[293.0,491.0],[293.0,499.0],[298.0,498.0],[301.0,501.0],[301.0,504.0],[297.0,505.0],[301.0,511.0],[306.0,511.0],[304.0,508.0],[310.0,508.0],[312.0,505.0],[316.0,509.0],[318.0,500.0],[326.0,504.0],[345.0,505.0],[347.0,502.0],[349.0,505.0],[342.0,507.0],[343.0,514.0],[355.0,523.0],[359.0,518.0],[366.0,520.0],[368.0,515.0],[375.0,519.0],[377.0,512.0],[381.0,511.0],[380.0,504.0],[385.0,496.0],[389.0,498.0],[395.0,495.0],[398.0,498.0],[398.0,505.0],[394.0,506.0],[399.0,509.0],[396.0,516.0],[405.0,519.0],[400.0,522.0],[401.0,532.0],[407.0,534.0],[404.0,536.0],[408.0,536.0],[411.0,529.0],[416.0,529.0],[415.0,521.0],[410.0,522.0],[410.0,514.0],[416.0,512.0],[417.0,508.0],[410.0,508.0],[406.0,518.0],[403.0,515.0],[408.0,502.0],[408.0,498.0],[407.0,501.0],[404.0,499.0],[409.0,493.0],[423.0,498.0],[423.0,488.0],[426.0,484.0],[433.0,487.0],[433.0,482.0],[445.0,482.0],[449.0,476.0],[453.0,455.0],[456.0,450.0],[461.0,450.0],[462.0,443.0],[478.0,442.0],[474.0,446.0],[474.0,451.0],[477.0,452.0],[473.0,456.0],[476.0,460.0],[472.0,463.0],[474.0,468.0],[478.0,467.0],[477.0,464.0],[483.0,463.0],[482.0,460.0],[479.0,461.0],[479.0,455.0],[482.0,453.0],[478.0,450.0],[484.0,448.0],[485.0,441.0],[503.0,433.0],[511.0,424.0],[511.0,420.0],[514.0,419.0],[512.0,414.0],[515.0,413.0],[515.0,402.0],[503.0,403.0],[498.0,407.0],[499.0,402.0],[494.0,400.0],[492.0,404.0],[479.0,402.0],[439.0,417.0],[449.0,434.0],[439.0,422.0],[436.0,422.0],[433.0,434.0],[430.0,435.0],[425.0,422.0],[424.0,425.0],[421.0,424.0],[424.0,430.0],[419.0,432.0],[418.0,451.0],[412.0,438.0],[414.0,435.0],[411.0,434.0],[408.0,440.0],[405.0,438.0],[416.0,430.0],[415.0,425.0],[412.0,425.0],[415.0,419.0],[406.0,414.0],[390.0,420.0],[384.0,415.0],[382.0,419.0],[378.0,416.0],[379.0,423.0],[386.0,427.0],[386.0,430.0],[377.0,428.0],[376.0,432.0],[372.0,433.0],[367.0,425.0],[376.0,424.0],[371.0,422.0],[374.0,416.0],[373.0,408.0],[365.0,404.0],[365.0,400.0],[363.0,397.0],[357.0,402.0],[357.0,392.0],[353.0,390.0],[350.0,390.0],[351.0,395.0],[350.0,398.0],[344.0,388.0]]]}},{"type":"Feature","properties":{"class":2},"geometry":{"type":"Polygon","coordinates":[[[489.0,486.0],[483.0,502.0],[486.0,501.0],[490.0,505.0],[486.0,510.0],[495.0,519.0],[484.0,518.0],[484.0,526.0],[488.0,532.0],[491.0,533.0],[499.0,527.0],[501.0,533.0],[497.0,535.0],[500.0,535.0],[522.0,528.0],[527.0,518.0],[525.0,511.0],[518.0,504.0],[515.0,504.0],[514.0,511.0],[510.0,507.0],[509.0,498.0],[502.0,498.0],[508.0,495.0],[505.0,491.0],[497.0,489.0],[487.0,497.0],[493.0,489.0],[493.0,486.0],[489.0,486.0]]]}},{"type":"Feature","properties":{"class":2},"geometry":{"type":"Polygon","coordinates":[[[619.0,388.0],[613.0,391.0],[614.0,395.0],[610.0,395.0],[609.0,401.0],[605.0,401.0],[602.0,404.0],[607.0,424.0],[610.0,426.0],[609.0,435.0],[604.0,436.0],[604.0,443.0],[609.0,445.0],[610.0,442.0],[616.0,441.0],[619.0,445.0],[613.0,450.0],[621.0,449.0],[616.0,453.0],[617.0,459.0],[613.0,456.0],[617.0,466.0],[615.0,480.0],[619.0,481.0],[634.0,452.0],[638.0,454.0],[640.0,451.0],[641.0,457.0],[635.0,458.0],[630.0,468.0],[634.0,471.0],[628.0,473.0],[631.0,477.0],[621.0,484.0],[625.0,483.0],[628.0,486.0],[631.0,481.0],[637.0,479.0],[639.0,483.0],[634.0,490.0],[637.0,487.0],[642.0,489.0],[642.0,486.0],[654.0,487.0],[651.0,492.0],[656.0,496.0],[657.0,492.0],[665.0,494.0],[665.0,490.0],[677.0,489.0],[682.0,495.0],[690.0,491.0],[692.0,499.0],[683.0,498.0],[683.0,501.0],[693.0,504.0],[700.0,504.0],[704.0,500.0],[702.0,497.0],[696.0,497.0],[697.0,492.0],[699.0,492.0],[698.0,494.0],[705.0,497.0],[706.0,503.0],[716.0,501.0],[716.0,504.0],[720.0,504.0],[714.0,509.0],[700.0,510.0],[697.0,513.0],[693.0,508.0],[681.0,503.0],[676.0,508.0],[670.0,502.0],[663.0,501.0],[666.0,506.0],[671.0,506.0],[672.0,511.0],[664.0,509.0],[665.0,515.0],[670.0,514.0],[669.0,519.0],[675.0,520.0],[676.0,527.0],[681.0,526.0],[677.0,515.0],[681.0,515.0],[682.0,511.0],[685.0,524.0],[694.0,518.0],[696.0,523.0],[701.0,520.0],[702.0,528.0],[708.0,528.0],[705.0,532.0],[698.0,529.0],[701.0,538.0],[697.0,540.0],[693.0,540.0],[693.0,532.0],[687.0,533.0],[691.0,527.0],[696.0,527.0],[694.0,523.0],[685.0,528.0],[685.0,534.0],[680.0,535.0],[683.0,544.0],[687.0,545.0],[683.0,548.0],[684.0,558.0],[689.0,558.0],[690.0,552.0],[694.0,553.0],[694.0,550.0],[690.0,551.0],[689.0,546.0],[694.0,548.0],[696.0,545.0],[698.0,549.0],[707.0,550.0],[710.0,555.0],[718.0,552.0],[720.0,543.0],[716.0,535.0],[721.0,528.0],[717.0,527.0],[713.0,516.0],[720.0,507.0],[725.0,511.0],[738.0,512.0],[736.0,516.0],[730.0,515.0],[730.0,522.0],[723.0,523.0],[722.0,550.0],[732.0,547.0],[733.0,544.0],[759.0,541.0],[762.0,534.0],[768.0,534.0],[777.0,540.0],[783.0,538.0],[784.0,543.0],[759.0,546.0],[724.0,555.0],[720.0,558.0],[718.0,568.0],[712.0,565.0],[707.0,571.0],[707.0,579.0],[700.0,581.0],[704.0,574.0],[701.0,571.0],[698.0,573.0],[699.0,578.0],[691.0,581.0],[685.0,578.0],[686.0,584.0],[681.0,582.0],[677.0,585.0],[678.0,591.0],[670.0,587.0],[663.0,592.0],[657.0,588.0],[653.0,590.0],[650.0,587.0],[654.0,585.0],[649.0,583.0],[653.0,583.0],[660.0,574.0],[668.0,575.0],[669.0,557.0],[656.0,556.0],[656.0,553.0],[653.0,553.0],[654.0,545.0],[649.0,539.0],[645.0,538.0],[641.0,542.0],[636.0,540.0],[635.0,543.0],[630.0,537.0],[631.0,541.0],[612.0,546.0],[599.0,557.0],[609.0,564.0],[604.0,577.0],[600.0,572.0],[591.0,570.0],[576.0,584.0],[563.0,591.0],[549.0,594.0],[536.0,605.0],[548.0,609.0],[545.0,624.0],[551.0,628.0],[555.0,627.0],[555.0,634.0],[551.0,630.0],[549.0,635.0],[556.0,636.0],[559.0,631.0],[561.0,637.0],[567.0,638.0],[570.0,631.0],[564.0,627.0],[566.0,623.0],[575.0,625.0],[573.0,635.0],[578.0,636.0],[575.0,627.0],[579.0,623.0],[585.0,624.0],[588.0,623.0],[585.0,617.0],[576.0,623.0],[569.0,622.0],[572.0,613.0],[578.0,615.0],[585.0,601.0],[592.0,600.0],[585.0,593.0],[593.0,585.0],[598.0,589.0],[604.0,580.0],[605.0,587.0],[608.0,589.0],[607.0,575.0],[613.0,575.0],[618.0,584.0],[617.0,592.0],[622.0,592.0],[620.0,596.0],[626.0,611.0],[631.0,610.0],[638.0,616.0],[649.0,612.0],[651.0,607.0],[644.0,601.0],[645.0,593.0],[646.0,601.0],[649.0,601.0],[655.0,613.0],[666.0,621.0],[662.0,622.0],[662.0,626.0],[657.0,627.0],[655.0,631.0],[643.0,631.0],[642.0,627.0],[637.0,627.0],[640.0,634.0],[631.0,636.0],[628.0,630.0],[632.0,627.0],[634.0,632.0],[636.0,624.0],[623.0,627.0],[629.0,625.0],[631.0,620.0],[626.0,619.0],[622.0,622.0],[624.0,618.0],[619.0,614.0],[617.0,617.0],[621.0,623.0],[618.0,625.0],[617.0,621.0],[607.0,618.0],[604.0,614.0],[597.0,613.0],[594.0,616.0],[591.0,612.0],[597.0,624.0],[601.0,619.0],[605.0,619.0],[618.0,627.0],[614.0,631.0],[621.0,636.0],[620.0,640.0],[615.0,640.0],[617.0,646.0],[615.0,647.0],[613.0,652.0],[618.0,651.0],[618.0,645.0],[621.0,646.0],[624.0,639.0],[631.0,645.0],[630.0,658.0],[633.0,656.0],[631.0,648.0],[639.0,649.0],[634.0,659.0],[636.0,664.0],[642.0,664.0],[643.0,669.0],[640.0,672.0],[644.0,672.0],[643.0,681.0],[639.0,686.0],[634.0,686.0],[635.0,680.0],[631.0,680.0],[630.0,674.0],[624.0,677.0],[631.0,684.0],[633.0,694.0],[642.0,704.0],[647.0,699.0],[658.0,699.0],[660.0,705.0],[648.0,708.0],[657.0,718.0],[671.0,717.0],[670.0,720.0],[676.0,721.0],[675.0,717.0],[678.0,715.0],[690.0,713.0],[693.0,709.0],[698.0,712.0],[713.0,701.0],[720.0,701.0],[714.0,699.0],[717.0,697.0],[715.0,693.0],[706.0,698.0],[706.0,693.0],[713.0,689.0],[714.0,682.0],[710.0,683.0],[710.0,676.0],[720.0,674.0],[720.0,661.0],[730.0,664.0],[734.0,656.0],[741.0,656.0],[742.0,653.0],[733.0,652.0],[732.0,647.0],[723.0,647.0],[724.0,644.0],[716.0,637.0],[717.0,632.0],[714.0,635.0],[691.0,637.0],[685.0,651.0],[687.0,656.0],[684.0,657.0],[682.0,664.0],[680.0,678.0],[683.0,684.0],[679.0,686.0],[674.0,683.0],[674.0,679.0],[679.0,679.0],[681.0,659.0],[672.0,659.0],[675.0,656.0],[672.0,656.0],[673.0,652.0],[670.0,650.0],[682.0,649.0],[685.0,644.0],[682.0,640.0],[692.0,633.0],[697.0,633.0],[696.0,625.0],[704.0,625.0],[705.0,630.0],[709.0,630.0],[719.0,622.0],[725.0,623.0],[725.0,608.0],[732.0,604.0],[727.0,602.0],[728.0,592.0],[721.0,591.0],[718.0,586.0],[728.0,589.0],[727.0,587.0],[728.0,584.0],[751.0,590.0],[758.0,589.0],[759.0,585.0],[763.0,588.0],[779.0,588.0],[786.0,585.0],[801.0,586.0],[819.0,580.0],[821.0,581.0],[817.0,583.0],[817.0,585.0],[827.0,585.0],[833.0,578.0],[846.0,575.0],[847.0,571.0],[844.0,568.0],[847.0,566.0],[834.0,556.0],[830.0,539.0],[790.0,541.0],[791.0,536.0],[804.0,536.0],[809.0,522.0],[816.0,525.0],[815.0,529.0],[823.0,529.0],[825.0,525.0],[820.0,522.0],[822.0,520.0],[829.0,524.0],[833.0,532.0],[838.0,553.0],[843.0,555.0],[842.0,558.0],[854.0,562.0],[855.0,569.0],[860.0,571.0],[824.0,588.0],[821.0,594.0],[809.0,596.0],[813.0,606.0],[810.0,615.0],[815.0,615.0],[815.0,618.0],[809.0,618.0],[808.0,622.0],[815.0,624.0],[819.0,619.0],[812.0,629.0],[811.0,644.0],[819.0,647.0],[831.0,646.0],[823.0,655.0],[819.0,655.0],[819.0,659.0],[839.0,659.0],[871.0,651.0],[910.0,648.0],[929.0,648.0],[930.0,651.0],[936.0,650.0],[947.0,654.0],[947.0,647.0],[929.0,647.0],[922.0,643.0],[903.0,646.0],[873.0,645.0],[880.0,642.0],[898.0,644.0],[902.0,641.0],[897.0,639.0],[898.0,632.0],[886.0,637.0],[887.0,629.0],[892.0,629.0],[891.0,623.0],[895.0,624.0],[897.0,614.0],[894.0,611.0],[887.0,611.0],[889.0,608.0],[885.0,606.0],[880.0,607.0],[874.0,600.0],[862.0,598.0],[865.0,597.0],[863.0,590.0],[866.0,589.0],[868.0,581.0],[861.0,578.0],[868.0,573.0],[868.0,562.0],[862.0,556.0],[857.0,541.0],[853.0,540.0],[854.0,509.0],[851.0,504.0],[846.0,504.0],[847.0,499.0],[841.0,501.0],[823.0,489.0],[814.0,474.0],[816.0,469.0],[807.0,472.0],[809.0,477.0],[803.0,474.0],[806.0,484.0],[800.0,483.0],[798.0,475.0],[795.0,474.0],[770.0,475.0],[766.0,481.0],[766.0,499.0],[768.0,503.0],[776.0,504.0],[786.0,511.0],[769.0,506.0],[766.0,507.0],[769.0,515.0],[764.0,518.0],[760.0,505.0],[763.0,494.0],[759.0,484.0],[752.0,488.0],[754.0,481.0],[745.0,481.0],[745.0,475.0],[756.0,479.0],[759.0,473.0],[749.0,469.0],[749.0,466.0],[733.0,469.0],[720.0,462.0],[740.0,467.0],[743.0,464.0],[741.0,461.0],[713.0,460.0],[703.0,454.0],[700.0,448.0],[696.0,457.0],[685.0,456.0],[683.0,453.0],[689.0,453.0],[693.0,448.0],[689.0,442.0],[694.0,439.0],[692.0,435.0],[689.0,440.0],[685.0,439.0],[682.0,442.0],[680.0,439.0],[683.0,436.0],[677.0,437.0],[678.0,440.0],[672.0,440.0],[674.0,436.0],[662.0,434.0],[663.0,437.0],[658.0,442.0],[649.0,444.0],[642.0,452.0],[642.0,448.0],[645.0,447.0],[642.0,435.0],[645.0,435.0],[648.0,429.0],[646.0,426.0],[651.0,425.0],[649.0,400.0],[644.0,393.0],[627.0,393.0],[625.0,396.0],[628.0,399.0],[624.0,399.0],[623.0,402.0],[624.0,393.0],[619.0,388.0]]]}},{"type":"Feature","properties":{"class":2},"geometry":{"type":"Polygon","coordinates":[[[1075.0,763.0],[1062.0,767.0],[1061.0,765.0],[1050.0,766.0],[1044.0,768.0],[1045.0,772.0],[1038.0,769.0],[1038.0,780.0],[1035.0,774.0],[1025.0,772.0],[1028.0,774.0],[1027.0,777.0],[1023.0,773.0],[1013.0,776.0],[1013.0,780.0],[1010.0,776.0],[1008.0,781.0],[1002.0,779.0],[996.0,783.0],[1004.0,787.0],[1000.0,789.0],[1001.0,792.0],[1009.0,799.0],[1013.0,798.0],[1013.0,803.0],[1016.0,804.0],[1014.0,808.0],[1019.0,814.0],[1017.0,816.0],[1021.0,817.0],[1045.0,812.0],[1040.0,811.0],[1042.0,808.0],[1052.0,808.0],[1051.0,805.0],[1040.0,805.0],[1046.0,801.0],[1043.0,795.0],[1040.0,799.0],[1038.0,792.0],[1046.0,792.0],[1048.0,788.0],[1051.0,794.0],[1055.0,795.0],[1059.0,789.0],[1064.0,795.0],[1067.0,794.0],[1065.0,790.0],[1071.0,789.0],[1070.0,793.0],[1073.0,796.0],[1070.0,800.0],[1062.0,800.0],[1061.0,803.0],[1059.0,795.0],[1056.0,796.0],[1059.0,807.0],[1054.0,811.0],[1062.0,811.0],[1062.0,807.0],[1072.0,812.0],[1095.0,810.0],[1092.0,807.0],[1099.0,810.0],[1109.0,807.0],[1110.0,804.0],[1111.0,805.0],[1120.0,804.0],[1121.0,800.0],[1115.0,789.0],[1111.0,788.0],[1108.0,792.0],[1107.0,786.0],[1110.0,785.0],[1102.0,786.0],[1102.0,783.0],[1106.0,782.0],[1101.0,778.0],[1093.0,773.0],[1081.0,770.0],[1076.0,773.0],[1071.0,770.0],[1078.0,766.0],[1075.0,763.0]]]}},{"type":"Feature","properties":{"class":2},"geometry":{"type":"Polygon","coordinates":[[[941.0,783.0],[938.0,796.0],[931.0,800.0],[929.0,806.0],[924.0,807.0],[922.0,803.0],[916.0,802.0],[916.0,806.0],[921.0,807.0],[921.0,812.0],[917.0,813.0],[921.0,814.0],[918.0,818.0],[922.0,820.0],[925.0,817.0],[931.0,821.0],[935.0,819.0],[933.0,827.0],[926.0,826.0],[931.0,824.0],[929.0,820.0],[925.0,820.0],[925.0,824.0],[921.0,822.0],[921.0,825.0],[924.0,825.0],[924.0,830.0],[928.0,829.0],[927.0,832.0],[930.0,836.0],[934.0,835.0],[933.0,838.0],[936.0,840.0],[939.0,834.0],[945.0,834.0],[947.0,838.0],[956.0,835.0],[958.0,832.0],[955.0,830.0],[958.0,826.0],[956.0,822.0],[960.0,824.0],[968.0,821.0],[968.0,818.0],[979.0,819.0],[977.0,816.0],[963.0,817.0],[961.0,810.0],[968.0,810.0],[970.0,814.0],[974.0,811.0],[975.0,815.0],[981.0,814.0],[982.0,817.0],[985.0,817.0],[981.0,813.0],[983.0,809.0],[978.0,808.0],[973.0,801.0],[968.0,803.0],[970.0,804.0],[968.0,807.0],[966.0,802.0],[970.0,799.0],[967.0,798.0],[969.0,796.0],[957.0,792.0],[958.0,790.0],[955.0,790.0],[957.0,795.0],[950.0,790.0],[945.0,792.0],[945.0,796.0],[941.0,795.0],[941.0,783.0]]]}},{"type":"Feature","properties":{"class":2},"geometry":{"type":"Polygon","coordinates":[[[701.0,874.0],[694.0,883.0],[686.0,881.0],[679.0,886.0],[680.0,898.0],[676.0,904.0],[675.0,916.0],[687.0,929.0],[689.0,927.0],[701.0,933.0],[708.0,933.0],[715.0,939.0],[714.0,930.0],[719.0,928.0],[722.0,922.0],[727.0,925.0],[727.0,920.0],[721.0,919.0],[721.0,915.0],[729.0,903.0],[729.0,892.0],[723.0,877.0],[701.0,874.0]]]}},{"type":"Feature","properties":{"class":2},"geometry":{"type":"Polygon","coordinates":[[[645.0,927.0],[647.0,935.0],[639.0,941.0],[628.0,939.0],[626.0,942.0],[626.0,938.0],[637.0,939.0],[637.0,935.0],[627.0,934.0],[616.0,938.0],[615.0,942.0],[610.0,941.0],[611.0,938.0],[605.0,938.0],[607.0,945.0],[609.0,942.0],[612.0,943.0],[605.0,949.0],[611.0,948.0],[612.0,956.0],[617.0,955.0],[615.0,958.0],[620.0,958.0],[616.0,950.0],[621.0,954.0],[625.0,953.0],[625.0,957.0],[629.0,960.0],[624.0,967.0],[628.0,974.0],[635.0,976.0],[635.0,981.0],[638.0,983.0],[660.0,990.0],[658.0,982.0],[678.0,976.0],[680.0,972.0],[686.0,973.0],[690.0,969.0],[698.0,968.0],[707.0,961.0],[700.0,960.0],[704.0,953.0],[700.0,952.0],[700.0,947.0],[694.0,940.0],[689.0,941.0],[682.0,935.0],[678.0,941.0],[679.0,936.0],[674.0,937.0],[672.0,928.0],[669.0,931.0],[659.0,931.0],[645.0,927.0]]]}},{"type":"Feature","properties":{"class":2},"geometry":{"type":"Polygon","coordinates":[[[886.0,1007.0],[870.0,1006.0],[866.0,1013.0],[874.0,1013.0],[875.0,1018.0],[882.0,1018.0],[882.0,1022.0],[891.0,1024.0],[893.0,1028.0],[883.0,1027.0],[882.0,1031.0],[873.0,1030.0],[872.0,1033.0],[865.0,1031.0],[863.0,1038.0],[852.0,1036.0],[850.0,1040.0],[846.0,1037.0],[850.0,1031.0],[847.0,1031.0],[844.0,1025.0],[842.0,1028.0],[834.0,1027.0],[837.0,1029.0],[835.0,1031.0],[826.0,1028.0],[818.0,1036.0],[821.0,1027.0],[818.0,1023.0],[813.0,1025.0],[815.0,1019.0],[811.0,1019.0],[809.0,1026.0],[813.0,1028.0],[810.0,1028.0],[806.0,1038.0],[802.0,1038.0],[807.0,1021.0],[801.0,1020.0],[801.0,1029.0],[795.0,1027.0],[800.0,1032.0],[800.0,1046.0],[795.0,1038.0],[792.0,1039.0],[795.0,1033.0],[791.0,1031.0],[792.0,1025.0],[789.0,1024.0],[783.0,1026.0],[786.0,1031.0],[778.0,1033.0],[779.0,1041.0],[764.0,1042.0],[761.0,1046.0],[755.0,1043.0],[759.0,1047.0],[759.0,1052.0],[750.0,1052.0],[744.0,1057.0],[754.0,1064.0],[751.0,1072.0],[755.0,1074.0],[761.0,1069.0],[760.0,1063.0],[764.0,1063.0],[765.0,1057.0],[774.0,1058.0],[776.0,1053.0],[781.0,1052.0],[777.0,1050.0],[779.0,1046.0],[790.0,1046.0],[786.0,1041.0],[800.0,1049.0],[802.0,1056.0],[807.0,1054.0],[807.0,1051.0],[803.0,1050.0],[806.0,1046.0],[807.0,1050.0],[811.0,1049.0],[811.0,1054.0],[817.0,1057.0],[813.0,1063.0],[806.0,1064.0],[818.0,1074.0],[810.0,1078.0],[816.0,1082.0],[819.0,1081.0],[819.0,1076.0],[827.0,1076.0],[824.0,1060.0],[827.0,1066.0],[837.0,1069.0],[848.0,1065.0],[847.0,1058.0],[845.0,1062.0],[840.0,1063.0],[840.0,1060.0],[844.0,1059.0],[841.0,1051.0],[848.0,1051.0],[851.0,1054.0],[850.0,1059.0],[859.0,1057.0],[858.0,1053.0],[873.0,1058.0],[873.0,1052.0],[880.0,1052.0],[884.0,1046.0],[894.0,1052.0],[900.0,1048.0],[903.0,1050.0],[908.0,1043.0],[908.0,1052.0],[914.0,1044.0],[914.0,1047.0],[918.0,1047.0],[917.0,1050.0],[922.0,1051.0],[919.0,1058.0],[925.0,1058.0],[919.0,1064.0],[907.0,1064.0],[907.0,1072.0],[910.0,1075.0],[920.0,1074.0],[920.0,1077.0],[917.0,1080.0],[905.0,1079.0],[904.0,1075.0],[898.0,1073.0],[895.0,1065.0],[897.0,1062.0],[891.0,1063.0],[893.0,1060.0],[892.0,1057.0],[879.0,1064.0],[885.0,1066.0],[880.0,1070.0],[884.0,1075.0],[888.0,1074.0],[891.0,1081.0],[887.0,1086.0],[921.0,1088.0],[920.0,1085.0],[927.0,1084.0],[927.0,1088.0],[935.0,1088.0],[934.0,1085.0],[930.0,1085.0],[933.0,1083.0],[941.0,1087.0],[944.0,1080.0],[940.0,1076.0],[944.0,1075.0],[947.0,1079.0],[948.0,1074.0],[953.0,1073.0],[949.0,1066.0],[940.0,1069.0],[942.0,1065.0],[948.0,1064.0],[942.0,1059.0],[944.0,1054.0],[923.0,1042.0],[916.0,1043.0],[920.0,1034.0],[916.0,1035.0],[910.0,1027.0],[906.0,1026.0],[906.0,1030.0],[895.0,1028.0],[903.0,1027.0],[899.0,1025.0],[899.0,1016.0],[896.0,1015.0],[896.0,1019.0],[891.0,1020.0],[885.0,1012.0],[886.0,1007.0]]]}},{"type":"Feature","properties":{"class":2},"geometry":{"type":"Polygon","coordinates":[[[67.0,776.0],[64.0,785.0],[54.0,788.0],[46.0,795.0],[37.0,794.0],[30.0,807.0],[39.0,822.0],[50.0,827.0],[55.0,833.0],[60.0,832.0],[57.0,838.0],[73.0,836.0],[72.0,833.0],[75.0,833.0],[75.0,838.0],[80.0,839.0],[78.0,848.0],[67.0,852.0],[62.0,848.0],[64.0,854.0],[60.0,856.0],[60.0,860.0],[64.0,863.0],[80.0,861.0],[80.0,865.0],[95.0,867.0],[101.0,864.0],[102.0,867.0],[112.0,870.0],[101.0,850.0],[105.0,843.0],[102.0,834.0],[109.0,833.0],[111.0,827.0],[99.0,830.0],[92.0,826.0],[99.0,823.0],[99.0,819.0],[93.0,818.0],[95.0,808.0],[87.0,806.0],[89.0,796.0],[82.0,794.0],[77.0,781.0],[67.0,776.0]]]}},{"type":"Feature","properties":{"class":2},"geometry":{"type":"Polygon","coordinates":[[[83.0,708.0],[78.0,713.0],[68.0,712.0],[69.0,715.0],[66.0,715.0],[63.0,721.0],[66.0,726.0],[80.0,726.0],[83.0,731.0],[79.0,730.0],[72.0,734.0],[70.0,730.0],[69.0,733.0],[64.0,733.0],[60.0,742.0],[64.0,747.0],[59.0,747.0],[56.0,763.0],[60.0,765.0],[59.0,762.0],[62.0,761.0],[63.0,765.0],[66.0,765.0],[66.0,771.0],[81.0,782.0],[84.0,793.0],[108.0,794.0],[113.0,797.0],[114.0,791.0],[117.0,791.0],[116.0,771.0],[119.0,770.0],[121.0,763.0],[114.0,768.0],[117.0,743.0],[110.0,732.0],[119.0,735.0],[123.0,741.0],[127.0,740.0],[129.0,746.0],[132.0,745.0],[132.0,737.0],[127.0,734.0],[132.0,732.0],[135.0,740.0],[137.0,739.0],[142.0,746.0],[141.0,749.0],[134.0,748.0],[141.0,754.0],[141.0,757.0],[137.0,757.0],[137.0,766.0],[140.0,768.0],[142.0,758.0],[150.0,747.0],[154.0,749.0],[157.0,746.0],[168.0,751.0],[169.0,760.0],[163.0,767.0],[154.0,766.0],[151.0,774.0],[155.0,771.0],[160.0,771.0],[162.0,775.0],[167.0,774.0],[169.0,768.0],[174.0,766.0],[176.0,749.0],[170.0,745.0],[171.0,738.0],[165.0,732.0],[167.0,727.0],[161.0,726.0],[159.0,716.0],[155.0,716.0],[156.0,711.0],[147.0,715.0],[132.0,716.0],[125.0,721.0],[120.0,721.0],[113.0,715.0],[103.0,714.0],[101.0,719.0],[106.0,726.0],[108.0,725.0],[103.0,730.0],[109.0,737.0],[106.0,738.0],[96.0,734.0],[97.0,724.0],[102.0,725.0],[99.0,715.0],[95.0,720.0],[94.0,713.0],[87.0,713.0],[83.0,708.0]]]}},{"type":"Feature","properties":{"class":2},"geometry":{"type":"Polygon","coordinates":[[[215.0,750.0],[205.0,752.0],[206.0,758.0],[187.0,775.0],[187.0,779.0],[181.0,781.0],[187.0,783.0],[189.0,788.0],[184.0,785.0],[180.0,788.0],[188.0,792.0],[182.0,793.0],[179.0,790.0],[179.0,784.0],[173.0,786.0],[166.0,794.0],[161.0,812.0],[157.0,812.0],[156.0,816.0],[154.0,813.0],[148.0,816.0],[151.0,818.0],[150.0,824.0],[146.0,824.0],[144.0,820.0],[144.0,825.0],[139.0,826.0],[139.0,831.0],[128.0,838.0],[126.0,843.0],[121.0,847.0],[118.0,844.0],[112.0,847.0],[114.0,859.0],[119.0,865.0],[127.0,864.0],[124.0,867.0],[130.0,869.0],[148.0,863.0],[147.0,857.0],[151.0,861.0],[151.0,857.0],[158.0,858.0],[168.0,853.0],[180.0,860.0],[183.0,865.0],[186.0,864.0],[184.0,861.0],[186.0,859.0],[188.0,865.0],[192.0,864.0],[191.0,869.0],[196.0,869.0],[196.0,865.0],[199.0,864.0],[204.0,875.0],[220.0,869.0],[219.0,861.0],[223.0,855.0],[223.0,846.0],[220.0,848.0],[219.0,844.0],[227.0,845.0],[233.0,840.0],[226.0,836.0],[230.0,833.0],[222.0,833.0],[225.0,831.0],[222.0,826.0],[226.0,819.0],[225.0,813.0],[222.0,815.0],[220.0,812.0],[228.0,812.0],[227.0,808.0],[231.0,804.0],[220.0,800.0],[222.0,789.0],[225.0,788.0],[223.0,759.0],[215.0,750.0]]]}},{"type":"Feature","properties":{"class":2},"geometry":{"type":"Polygon","coordinates":[[[277.0,771.0],[276.0,775.0],[283.0,773.0],[285.0,778.0],[281.0,783.0],[285.0,783.0],[286.0,786.0],[293.0,773.0],[277.0,771.0]]]}},{"type":"Feature","properties":{"class":2},"geometry":{"type":"Polygon","coordinates":[[[401.0,744.0],[398.0,748.0],[394.0,746.0],[388.0,749.0],[393.0,755.0],[389.0,754.0],[382.0,759.0],[385.0,755.0],[382.0,752.0],[382.0,755.0],[378.0,756.0],[378.0,760.0],[374.0,757.0],[379.0,754.0],[380.0,749.0],[384.0,749.0],[383.0,747.0],[372.0,750.0],[360.0,749.0],[359.0,768.0],[356.0,768.0],[352.0,781.0],[361.0,780.0],[365.0,784.0],[376.0,782.0],[381.0,787.0],[380.0,780.0],[391.0,780.0],[396.0,777.0],[391.0,787.0],[400.0,783.0],[398.0,780.0],[406.0,783.0],[415.0,781.0],[428.0,790.0],[426.0,786.0],[411.0,776.0],[408.0,779.0],[400.0,779.0],[399.0,774.0],[402.0,771.0],[398.0,768.0],[391.0,771.0],[392.0,775.0],[389.0,777.0],[380.0,774.0],[380.0,777.0],[368.0,778.0],[367.0,775.0],[376.0,775.0],[378.0,771.0],[383.0,770.0],[378.0,764.0],[380.0,756.0],[381.0,762.0],[385.0,760.0],[386.0,767.0],[393.0,769.0],[397.0,766.0],[397.0,760.0],[394.0,757.0],[396.0,752.0],[392.0,752.0],[391.0,749.0],[408.0,749.0],[408.0,752.0],[411.0,752.0],[412.0,748.0],[411.0,755.0],[414.0,759.0],[406.0,758.0],[406.0,754.0],[402.0,753.0],[406.0,764.0],[402.0,768.0],[404.0,771.0],[412.0,769.0],[414.0,773.0],[419.0,774.0],[423.0,765.0],[414.0,756.0],[414.0,753.0],[417.0,753.0],[413.0,750.0],[415.0,744.0],[410.0,747.0],[401.0,744.0]]]}},{"type":"Feature","properties":{"class":2},"geometry":{"type":"Polygon","coordinates":[[[363.0,803.0],[363.0,807.0],[368.0,810.0],[364.0,814.0],[361.0,814.0],[361.0,811.0],[355.0,812.0],[354.0,817.0],[346.0,820.0],[349.0,823.0],[355.0,819.0],[349.0,842.0],[352.0,848.0],[348.0,851.0],[355.0,869.0],[361.0,872.0],[354.0,877.0],[364.0,891.0],[361.0,893.0],[361.0,900.0],[370.0,900.0],[368.0,904.0],[372.0,905.0],[410.0,890.0],[409.0,886.0],[405.0,889.0],[404.0,886.0],[411.0,881.0],[412.0,875.0],[430.0,861.0],[440.0,857.0],[445.0,845.0],[440.0,842.0],[440.0,835.0],[433.0,828.0],[408.0,821.0],[396.0,809.0],[391.0,810.0],[391.0,806.0],[370.0,807.0],[363.0,803.0]]]}},{"type":"Feature","properties":{"class":2},"geometry":{"type":"Polygon","coordinates":[[[237.0,800.0],[238.0,812.0],[243.0,814.0],[239.0,821.0],[236.0,821.0],[234.0,827.0],[241.0,821.0],[243.0,823.0],[239.0,826.0],[247.0,826.0],[244.0,824.0],[245.0,821.0],[253.0,820.0],[259.0,813.0],[259.0,808.0],[256.0,808.0],[256.0,811.0],[244.0,811.0],[242.0,804.0],[245.0,801.0],[241.0,800.0],[239.0,803.0],[237.0,800.0]]]}},{"type":"Feature","properties":{"class":2},"geometry":{"type":"Polygon","coordinates":[[[1344.0,358.0],[1341.0,359.0],[1344.0,360.0],[1342.0,366.0],[1337.0,366.0],[1337.0,369.0],[1341.0,376.0],[1334.0,384.0],[1334.0,391.0],[1338.0,394.0],[1338.0,386.0],[1343.0,386.0],[1340.0,398.0],[1343.0,400.0],[1347.0,397.0],[1345.0,400.0],[1344.0,415.0],[1350.0,414.0],[1349.0,419.0],[1352.0,421.0],[1342.0,423.0],[1345.0,426.0],[1349.0,425.0],[1350.0,432.0],[1346.0,430.0],[1345.0,433.0],[1348.0,433.0],[1349.0,437.0],[1351.0,434.0],[1355.0,440.0],[1359.0,437.0],[1358.0,431.0],[1353.0,430.0],[1357.0,424.0],[1357.0,419.0],[1351.0,414.0],[1358.0,412.0],[1361.0,417.0],[1368.0,411.0],[1369.0,416.0],[1361.0,418.0],[1367.0,419.0],[1367.0,423.0],[1361.0,426.0],[1364.0,433.0],[1374.0,436.0],[1369.0,443.0],[1362.0,442.0],[1357.0,448.0],[1366.0,462.0],[1372.0,462.0],[1368.0,455.0],[1372.0,455.0],[1372.0,451.0],[1377.0,448.0],[1378.0,445.0],[1383.0,445.0],[1383.0,450.0],[1378.0,449.0],[1382.0,457.0],[1386.0,451.0],[1390.0,453.0],[1392.0,444.0],[1388.0,442.0],[1387.0,446.0],[1387.0,442.0],[1373.0,431.0],[1372.0,424.0],[1381.0,419.0],[1381.0,413.0],[1386.0,412.0],[1386.0,417.0],[1380.0,420.0],[1379.0,428.0],[1386.0,432.0],[1387.0,437.0],[1388.0,434.0],[1390.0,435.0],[1394.0,434.0],[1393.0,420.0],[1381.0,400.0],[1378.0,403.0],[1382.0,404.0],[1384.0,410.0],[1375.0,407.0],[1369.0,413.0],[1364.0,398.0],[1358.0,397.0],[1361.0,393.0],[1355.0,389.0],[1359.0,388.0],[1357.0,383.0],[1351.0,382.0],[1355.0,380.0],[1355.0,375.0],[1350.0,376.0],[1349.0,380.0],[1342.0,375.0],[1349.0,371.0],[1349.0,370.0],[1347.0,370.0],[1347.0,369.0],[1345.0,369.0],[1345.0,364.0],[1351.0,364.0],[1344.0,358.0]]]}},{"type":"Feature","properties":{"class":2},"geometry":{"type":"Polygon","coordinates":[[[1392.0,351.0],[1395.0,352.0],[1397.0,359.0],[1404.0,358.0],[1404.0,354.0],[1399.0,356.0],[1396.0,351.0],[1392.0,351.0]]]}},{"type":"Feature","properties":{"class":2},"geometry":{"type":"Polygon","coordinates":[[[1486.0,286.0],[1483.0,292.0],[1474.0,294.0],[1471.0,308.0],[1467.0,304.0],[1462.0,306.0],[1463.0,310.0],[1465.0,307.0],[1470.0,310.0],[1471.0,316.0],[1466.0,323.0],[1478.0,340.0],[1479.0,347.0],[1484.0,350.0],[1484.0,357.0],[1491.0,361.0],[1486.0,370.0],[1496.0,366.0],[1495.0,362.0],[1497.0,365.0],[1502.0,361.0],[1508.0,362.0],[1504.0,357.0],[1506.0,356.0],[1510.0,357.0],[1513.0,363.0],[1509.0,365.0],[1508.0,369.0],[1496.0,372.0],[1506.0,373.0],[1511.0,365.0],[1525.0,375.0],[1527.0,372.0],[1538.0,371.0],[1536.0,368.0],[1543.0,359.0],[1541.0,356.0],[1533.0,358.0],[1534.0,351.0],[1528.0,355.0],[1526.0,349.0],[1517.0,350.0],[1517.0,356.0],[1522.0,360.0],[1527.0,356.0],[1528.0,364.0],[1532.0,363.0],[1530.0,367.0],[1534.0,368.0],[1525.0,371.0],[1515.0,357.0],[1502.0,352.0],[1506.0,340.0],[1502.0,341.0],[1502.0,345.0],[1496.0,343.0],[1498.0,339.0],[1495.0,335.0],[1496.0,330.0],[1500.0,339.0],[1504.0,338.0],[1503.0,335.0],[1511.0,335.0],[1512.0,339.0],[1516.0,336.0],[1516.0,332.0],[1508.0,325.0],[1510.0,321.0],[1504.0,324.0],[1502.0,322.0],[1505.0,319.0],[1509.0,320.0],[1508.0,313.0],[1512.0,312.0],[1512.0,308.0],[1516.0,311.0],[1517.0,309.0],[1509.0,303.0],[1502.0,305.0],[1493.0,302.0],[1487.0,294.0],[1486.0,286.0]]]}},{"type":"Feature","properties":{"class":2},"geometry":{"type":"Polygon","coordinates":[[[1417.0,242.0],[1416.0,245.0],[1405.0,246.0],[1405.0,249.0],[1411.0,250.0],[1409.0,253.0],[1404.0,251.0],[1400.0,261.0],[1396.0,266.0],[1392.0,266.0],[1396.0,268.0],[1394.0,273.0],[1392.0,271.0],[1387.0,273.0],[1385.0,270.0],[1380.0,276.0],[1372.0,279.0],[1372.0,282.0],[1379.0,286.0],[1383.0,284.0],[1385.0,276.0],[1389.0,278.0],[1388.0,285.0],[1402.0,283.0],[1399.0,287.0],[1382.0,289.0],[1387.0,292.0],[1394.0,321.0],[1410.0,327.0],[1407.0,328.0],[1408.0,331.0],[1416.0,326.0],[1410.0,324.0],[1428.0,317.0],[1428.0,309.0],[1431.0,306.0],[1437.0,308.0],[1440.0,305.0],[1438.0,302.0],[1453.0,303.0],[1460.0,294.0],[1463.0,297.0],[1468.0,296.0],[1462.0,289.0],[1467.0,291.0],[1482.0,285.0],[1473.0,280.0],[1471.0,272.0],[1474.0,267.0],[1465.0,258.0],[1459.0,258.0],[1457.0,261.0],[1464.0,267.0],[1462.0,285.0],[1453.0,284.0],[1452.0,280.0],[1458.0,282.0],[1458.0,278.0],[1455.0,279.0],[1454.0,276.0],[1459.0,274.0],[1450.0,272.0],[1453.0,268.0],[1459.0,269.0],[1458.0,266.0],[1452.0,267.0],[1455.0,264.0],[1454.0,256.0],[1435.0,244.0],[1431.0,251.0],[1430.0,245.0],[1425.0,244.0],[1424.0,247.0],[1429.0,249.0],[1427.0,254.0],[1434.0,251.0],[1437.0,253.0],[1435.0,260.0],[1432.0,257.0],[1422.0,260.0],[1419.0,250.0],[1412.0,249.0],[1414.0,246.0],[1422.0,247.0],[1417.0,242.0]]]}},{"type":"Feature","properties":{"class":2},"geometry":{"type":"Polygon","coordinates":[[[1514.0,124.0],[1507.0,133.0],[1502.0,133.0],[1504.0,136.0],[1510.0,135.0],[1503.0,138.0],[1504.0,155.0],[1508.0,160.0],[1505.0,168.0],[1513.0,168.0],[1511.0,175.0],[1522.0,179.0],[1537.0,192.0],[1528.0,191.0],[1517.0,185.0],[1511.0,190.0],[1503.0,190.0],[1496.0,188.0],[1496.0,183.0],[1489.0,185.0],[1489.0,188.0],[1501.0,195.0],[1506.0,194.0],[1507.0,197.0],[1514.0,198.0],[1514.0,204.0],[1509.0,207.0],[1515.0,208.0],[1515.0,213.0],[1520.0,213.0],[1522.0,218.0],[1528.0,216.0],[1528.0,211.0],[1532.0,217.0],[1535.0,210.0],[1521.0,207.0],[1521.0,204.0],[1538.0,196.0],[1548.0,208.0],[1549.0,216.0],[1558.0,220.0],[1563.0,207.0],[1560.0,207.0],[1555.0,199.0],[1545.0,197.0],[1549.0,197.0],[1549.0,193.0],[1556.0,194.0],[1557.0,199.0],[1563.0,197.0],[1563.0,148.0],[1558.0,146.0],[1555.0,134.0],[1551.0,140.0],[1550.0,137.0],[1541.0,138.0],[1543.0,133.0],[1536.0,137.0],[1525.0,135.0],[1525.0,139.0],[1523.0,134.0],[1519.0,134.0],[1517.0,138.0],[1517.0,135.0],[1512.0,133.0],[1520.0,133.0],[1522.0,128.0],[1515.0,128.0],[1518.0,124.0],[1514.0,124.0]]]}},{"type":"Feature","properties":{"class":2},"geometry":{"type":"Polygon","coordinates":[[[1599.0,88.0],[1599.0,96.0],[1594.0,96.0],[1594.0,99.0],[1590.0,97.0],[1586.0,103.0],[1575.0,108.0],[1575.0,119.0],[1572.0,120.0],[1572.0,124.0],[1576.0,133.0],[1573.0,133.0],[1570.0,127.0],[1560.0,128.0],[1573.0,138.0],[1574.0,143.0],[1591.0,135.0],[1604.0,137.0],[1599.0,133.0],[1606.0,126.0],[1605.0,123.0],[1599.0,125.0],[1598.0,130.0],[1594.0,132.0],[1588.0,131.0],[1591.0,125.0],[1605.0,117.0],[1605.0,109.0],[1614.0,104.0],[1614.0,100.0],[1605.0,95.0],[1606.0,90.0],[1599.0,88.0]]]}},{"type":"Feature","properties":{"class":2},"geometry":{"type":"Polygon","coordinates":[[[1524.0,80.0],[1517.0,81.0],[1521.0,82.0],[1518.0,84.0],[1524.0,84.0],[1524.0,80.0]]]}},{"type":"Feature","properties":{"class":2},"geometry":{"type":"Polygon","coordinates":[[[1448.0,5.0],[1446.0,9.0],[1441.0,7.0],[1441.0,16.0],[1438.0,14.0],[1437.0,17.0],[1434.0,15.0],[1430.0,19.0],[1423.0,19.0],[1421.0,29.0],[1427.0,30.0],[1424.0,25.0],[1426.0,22.0],[1431.0,23.0],[1429.0,27.0],[1433.0,27.0],[1435.0,38.0],[1438.0,38.0],[1432.0,40.0],[1437.0,50.0],[1431.0,57.0],[1439.0,56.0],[1437.0,52.0],[1442.0,49.0],[1440.0,47.0],[1443.0,44.0],[1437.0,44.0],[1437.0,42.0],[1441.0,43.0],[1447.0,39.0],[1447.0,46.0],[1452.0,47.0],[1458.0,39.0],[1457.0,36.0],[1454.0,38.0],[1456.0,30.0],[1457.0,35.0],[1462.0,34.0],[1462.0,27.0],[1455.0,27.0],[1454.0,34.0],[1451.0,35.0],[1449.0,23.0],[1454.0,20.0],[1455.0,13.0],[1453.0,6.0],[1448.0,5.0]]]}},{"type":"Feature","properties":{"class":2},"geometry":{"type":"Polygon","coordinates":[[[1491.0,44.0],[1463.0,43.0],[1468.0,47.0],[1457.0,49.0],[1455.0,55.0],[1462.0,61.0],[1460.0,65.0],[1457.0,64.0],[1457.0,68.0],[1467.0,65.0],[1467.0,77.0],[1460.0,78.0],[1462.0,88.0],[1466.0,87.0],[1467.0,90.0],[1459.0,91.0],[1459.0,84.0],[1452.0,73.0],[1448.0,92.0],[1449.0,100.0],[1454.0,105.0],[1454.0,114.0],[1459.0,111.0],[1458.0,118.0],[1453.0,116.0],[1451.0,124.0],[1454.0,124.0],[1454.0,121.0],[1459.0,124.0],[1461.0,121.0],[1463.0,128.0],[1458.0,128.0],[1459.0,136.0],[1465.0,136.0],[1464.0,141.0],[1469.0,141.0],[1472.0,145.0],[1474.0,141.0],[1475.0,145.0],[1478.0,145.0],[1483.0,136.0],[1480.0,129.0],[1475.0,129.0],[1476.0,120.0],[1470.0,123.0],[1473.0,119.0],[1469.0,115.0],[1470.0,110.0],[1475.0,107.0],[1466.0,105.0],[1463.0,108.0],[1461.0,105.0],[1476.0,96.0],[1473.0,103.0],[1479.0,105.0],[1476.0,100.0],[1480.0,99.0],[1483.0,104.0],[1481.0,111.0],[1485.0,112.0],[1486.0,108.0],[1493.0,117.0],[1497.0,115.0],[1497.0,121.0],[1509.0,119.0],[1510.0,112.0],[1506.0,108.0],[1512.0,107.0],[1510.0,111.0],[1516.0,113.0],[1511.0,120.0],[1516.0,119.0],[1519.0,122.0],[1521.0,114.0],[1515.0,106.0],[1516.0,102.0],[1520.0,105.0],[1523.0,94.0],[1531.0,92.0],[1528.0,97.0],[1524.0,97.0],[1522.0,105.0],[1524.0,107.0],[1525.0,103.0],[1538.0,93.0],[1540.0,83.0],[1536.0,83.0],[1538.0,79.0],[1529.0,65.0],[1526.0,68.0],[1518.0,67.0],[1517.0,65.0],[1523.0,62.0],[1519.0,61.0],[1519.0,58.0],[1516.0,62.0],[1510.0,52.0],[1507.0,52.0],[1506.0,57.0],[1503.0,56.0],[1504.0,46.0],[1499.0,45.0],[1498.0,48.0],[1502.0,49.0],[1496.0,49.0],[1495.0,53.0],[1491.0,54.0],[1491.0,44.0]]]}},{"type":"Feature","properties":{"class":2},"geometry":{"type":"Polygon","coordinates":[[[1414.0,33.0],[1410.0,37.0],[1412.0,41.0],[1409.0,48.0],[1419.0,41.0],[1419.0,44.0],[1415.0,45.0],[1416.0,52.0],[1412.0,51.0],[1413.0,55.0],[1419.0,59.0],[1423.0,55.0],[1424.0,39.0],[1415.0,38.0],[1414.0,33.0]]]}},{"type":"Feature","properties":{"class":2},"geometry":{"type":"Polygon","coordinates":[[[1254.0,68.0],[1234.0,68.0],[1232.0,73.0],[1228.0,76.0],[1231.0,71.0],[1190.0,75.0],[1166.0,82.0],[1164.0,80.0],[1156.0,80.0],[1163.0,83.0],[1147.0,87.0],[1149.0,94.0],[1153.0,96.0],[1148.0,105.0],[1157.0,107.0],[1159.0,99.0],[1166.0,107.0],[1170.0,120.0],[1178.0,128.0],[1177.0,133.0],[1184.0,139.0],[1189.0,136.0],[1196.0,146.0],[1200.0,146.0],[1213.0,131.0],[1240.0,109.0],[1239.0,106.0],[1244.0,107.0],[1253.0,95.0],[1257.0,94.0],[1258.0,75.0],[1256.0,72.0],[1250.0,75.0],[1254.0,68.0]]]}},{"type":"Feature","properties":{"class":2},"geometry":{"type":"Polygon","coordinates":[[[1183.0,0.0],[1182.0,4.0],[1185.0,3.0],[1188.0,11.0],[1196.0,15.0],[1198.0,24.0],[1204.0,26.0],[1208.0,33.0],[1207.0,36.0],[1197.0,35.0],[1191.0,30.0],[1194.0,25.0],[1192.0,23.0],[1184.0,29.0],[1185.0,33.0],[1179.0,39.0],[1181.0,47.0],[1186.0,48.0],[1187.0,56.0],[1194.0,61.0],[1194.0,68.0],[1209.0,70.0],[1215.0,66.0],[1227.0,66.0],[1237.0,60.0],[1240.0,61.0],[1243.0,56.0],[1241.0,43.0],[1245.0,38.0],[1243.0,61.0],[1252.0,62.0],[1255.0,53.0],[1258.0,52.0],[1258.0,63.0],[1265.0,68.0],[1266.0,74.0],[1260.0,68.0],[1258.0,71.0],[1264.0,77.0],[1267.0,75.0],[1272.0,84.0],[1281.0,83.0],[1288.0,78.0],[1304.0,79.0],[1309.0,76.0],[1308.0,81.0],[1315.0,86.0],[1316.0,93.0],[1325.0,107.0],[1335.0,106.0],[1338.0,116.0],[1343.0,119.0],[1342.0,124.0],[1349.0,127.0],[1338.0,125.0],[1334.0,126.0],[1335.0,129.0],[1329.0,128.0],[1327.0,131.0],[1330.0,137.0],[1333.0,137.0],[1333.0,143.0],[1323.0,147.0],[1323.0,152.0],[1337.0,160.0],[1339.0,154.0],[1344.0,156.0],[1346.0,153.0],[1354.0,162.0],[1351.0,173.0],[1358.0,172.0],[1361.0,175.0],[1359.0,170.0],[1354.0,171.0],[1356.0,157.0],[1351.0,155.0],[1353.0,147.0],[1350.0,145.0],[1352.0,139.0],[1359.0,139.0],[1359.0,135.0],[1351.0,138.0],[1347.0,134.0],[1357.0,131.0],[1360.0,135.0],[1365.0,134.0],[1374.0,143.0],[1385.0,145.0],[1388.0,150.0],[1389.0,146.0],[1398.0,151.0],[1414.0,149.0],[1412.0,155.0],[1404.0,161.0],[1409.0,161.0],[1406.0,167.0],[1409.0,171.0],[1413.0,168.0],[1411.0,173.0],[1416.0,173.0],[1417.0,176.0],[1421.0,173.0],[1420.0,165.0],[1416.0,167.0],[1415.0,160.0],[1418.0,159.0],[1413.0,155.0],[1418.0,151.0],[1429.0,155.0],[1454.0,153.0],[1456.0,156.0],[1462.0,156.0],[1454.0,163.0],[1444.0,163.0],[1443.0,173.0],[1438.0,173.0],[1434.0,177.0],[1445.0,179.0],[1449.0,175.0],[1458.0,178.0],[1458.0,181.0],[1463.0,180.0],[1466.0,166.0],[1472.0,160.0],[1471.0,152.0],[1467.0,155.0],[1460.0,149.0],[1452.0,152.0],[1452.0,147.0],[1447.0,151.0],[1446.0,145.0],[1436.0,145.0],[1435.0,142.0],[1431.0,143.0],[1435.0,146.0],[1435.0,149.0],[1432.0,149.0],[1425.0,141.0],[1417.0,143.0],[1414.0,139.0],[1420.0,136.0],[1414.0,131.0],[1405.0,134.0],[1387.0,126.0],[1390.0,119.0],[1408.0,121.0],[1409.0,118.0],[1432.0,131.0],[1435.0,127.0],[1438.0,127.0],[1437.0,130.0],[1447.0,128.0],[1442.0,95.0],[1434.0,70.0],[1429.0,69.0],[1424.0,75.0],[1425.0,78.0],[1417.0,78.0],[1411.0,74.0],[1411.0,81.0],[1403.0,88.0],[1406.0,93.0],[1403.0,99.0],[1399.0,100.0],[1389.0,90.0],[1398.0,93.0],[1396.0,88.0],[1399.0,81.0],[1404.0,83.0],[1404.0,80.0],[1388.0,67.0],[1383.0,67.0],[1381.0,60.0],[1372.0,57.0],[1370.0,63.0],[1373.0,63.0],[1373.0,66.0],[1368.0,72.0],[1373.0,71.0],[1378.0,64.0],[1380.0,66.0],[1374.0,71.0],[1377.0,74.0],[1371.0,75.0],[1370.0,78.0],[1374.0,78.0],[1372.0,81.0],[1374.0,82.0],[1381.0,73.0],[1380.0,77.0],[1386.0,81.0],[1380.0,80.0],[1378.0,83.0],[1385.0,83.0],[1386.0,90.0],[1381.0,88.0],[1376.0,94.0],[1377.0,107.0],[1380.0,110.0],[1369.0,110.0],[1369.0,104.0],[1346.0,96.0],[1352.0,93.0],[1353.0,89.0],[1358.0,89.0],[1358.0,86.0],[1353.0,87.0],[1352.0,84.0],[1359.0,83.0],[1362.0,78.0],[1361.0,70.0],[1355.0,72.0],[1360.0,65.0],[1353.0,62.0],[1350.0,69.0],[1345.0,72.0],[1323.0,64.0],[1324.0,58.0],[1332.0,54.0],[1328.0,47.0],[1330.0,45.0],[1330.0,39.0],[1329.0,43.0],[1325.0,39.0],[1324.0,24.0],[1318.0,26.0],[1311.0,35.0],[1320.0,49.0],[1322.0,37.0],[1325.0,43.0],[1325.0,52.0],[1318.0,52.0],[1317.0,47.0],[1313.0,50.0],[1314.0,55.0],[1322.0,53.0],[1319.0,57.0],[1321.0,62.0],[1317.0,64.0],[1307.0,49.0],[1303.0,51.0],[1304.0,43.0],[1300.0,44.0],[1294.0,39.0],[1304.0,33.0],[1300.0,30.0],[1301.0,24.0],[1303.0,27.0],[1307.0,24.0],[1309.0,28.0],[1310.0,19.0],[1287.0,29.0],[1295.0,20.0],[1299.0,20.0],[1296.0,14.0],[1302.0,18.0],[1308.0,14.0],[1303.0,13.0],[1310.0,9.0],[1312.0,0.0],[1301.0,1.0],[1304.0,4.0],[1303.0,9.0],[1298.0,5.0],[1290.0,6.0],[1286.0,0.0],[1243.0,0.0],[1242.0,4.0],[1237.0,0.0],[1183.0,0.0]]]}},{"type":"Feature","properties":{"class":2},"geometry":{"type":"Polygon","coordinates":[[[1184.0,0.0],[1182.0,3.0],[1186.0,3.0],[1186.0,7.0],[1188.0,2.0],[1193.0,3.0],[1188.0,10.0],[1196.0,14.0],[1197.0,18.0],[1219.0,8.0],[1227.0,9.0],[1233.0,4.0],[1229.0,10.0],[1232.0,14.0],[1237.0,14.0],[1236.0,18.0],[1241.0,24.0],[1259.0,23.0],[1256.0,29.0],[1253.0,29.0],[1254.0,28.0],[1253.0,25.0],[1251.0,28.0],[1246.0,26.0],[1237.0,31.0],[1235.0,25.0],[1224.0,25.0],[1219.0,11.0],[1198.0,21.0],[1198.0,24.0],[1204.0,25.0],[1207.0,32.0],[1213.0,32.0],[1207.0,37.0],[1197.0,36.0],[1190.0,30.0],[1191.0,26.0],[1186.0,27.0],[1186.0,33.0],[1180.0,37.0],[1179.0,43.0],[1182.0,47.0],[1186.0,46.0],[1188.0,57.0],[1193.0,59.0],[1192.0,58.0],[1193.0,56.0],[1198.0,61.0],[1203.0,61.0],[1196.0,63.0],[1195.0,68.0],[1226.0,66.0],[1239.0,60.0],[1243.0,56.0],[1240.0,43.0],[1245.0,38.0],[1243.0,60.0],[1252.0,62.0],[1258.0,51.0],[1258.0,62.0],[1266.0,69.0],[1271.0,80.0],[1275.0,79.0],[1272.0,83.0],[1281.0,83.0],[1282.0,80.0],[1292.0,77.0],[1303.0,79.0],[1307.0,76.0],[1306.0,73.0],[1309.0,74.0],[1308.0,81.0],[1314.0,84.0],[1321.0,101.0],[1326.0,107.0],[1335.0,105.0],[1339.0,116.0],[1343.0,116.0],[1343.0,124.0],[1350.0,127.0],[1344.0,127.0],[1342.0,133.0],[1337.0,129.0],[1328.0,129.0],[1334.0,142.0],[1323.0,147.0],[1325.0,155.0],[1330.0,154.0],[1339.0,159.0],[1339.0,154.0],[1347.0,153.0],[1350.0,157.0],[1353.0,149.0],[1350.0,146.0],[1352.0,138.0],[1349.0,135.0],[1345.0,136.0],[1347.0,131.0],[1358.0,131.0],[1362.0,135.0],[1361.0,130.0],[1364.0,130.0],[1369.0,139.0],[1388.0,136.0],[1391.0,140.0],[1389.0,145.0],[1395.0,149.0],[1400.0,149.0],[1400.0,146.0],[1405.0,149.0],[1411.0,143.0],[1416.0,145.0],[1417.0,142.0],[1412.0,140.0],[1420.0,136.0],[1413.0,134.0],[1414.0,131.0],[1398.0,135.0],[1392.0,127.0],[1386.0,126.0],[1386.0,121.0],[1390.0,120.0],[1387.0,109.0],[1391.0,109.0],[1393.0,120.0],[1408.0,121.0],[1402.0,114.0],[1397.0,115.0],[1399.0,109.0],[1412.0,121.0],[1422.0,123.0],[1426.0,129.0],[1434.0,127.0],[1430.0,129.0],[1433.0,131.0],[1435.0,127.0],[1439.0,127.0],[1440.0,130.0],[1447.0,128.0],[1442.0,95.0],[1435.0,79.0],[1436.0,72.0],[1431.0,69.0],[1425.0,77.0],[1433.0,80.0],[1427.0,81.0],[1424.0,77.0],[1412.0,79.0],[1404.0,87.0],[1406.0,94.0],[1400.0,101.0],[1388.0,89.0],[1396.0,91.0],[1402.0,78.0],[1387.0,67.0],[1383.0,67.0],[1381.0,61.0],[1373.0,57.0],[1370.0,61.0],[1373.0,63.0],[1371.0,70.0],[1380.0,64.0],[1381.0,69.0],[1376.0,72.0],[1382.0,73.0],[1380.0,76.0],[1387.0,79.0],[1387.0,89.0],[1378.0,98.0],[1377.0,106.0],[1381.0,109.0],[1374.0,112.0],[1375.0,110.0],[1369.0,110.0],[1370.0,105.0],[1346.0,96.0],[1358.0,86.0],[1333.0,84.0],[1328.0,79.0],[1324.0,80.0],[1323.0,71.0],[1329.0,75.0],[1333.0,74.0],[1330.0,79.0],[1335.0,82.0],[1338.0,78.0],[1349.0,77.0],[1349.0,72.0],[1352.0,72.0],[1351.0,82.0],[1354.0,83.0],[1355.0,79.0],[1358.0,83.0],[1363.0,75.0],[1362.0,72.0],[1355.0,72.0],[1355.0,69.0],[1359.0,68.0],[1358.0,64.0],[1351.0,64.0],[1347.0,72.0],[1339.0,72.0],[1322.0,64.0],[1322.0,68.0],[1318.0,68.0],[1318.0,74.0],[1315.0,73.0],[1314.0,62.0],[1313.0,68.0],[1308.0,67.0],[1304.0,58.0],[1310.0,56.0],[1310.0,52.0],[1303.0,52.0],[1304.0,43.0],[1299.0,44.0],[1298.0,40.0],[1290.0,39.0],[1299.0,38.0],[1300.0,35.0],[1296.0,34.0],[1301.0,33.0],[1301.0,23.0],[1287.0,29.0],[1299.0,17.0],[1282.0,21.0],[1285.0,25.0],[1283.0,29.0],[1280.0,19.0],[1290.0,17.0],[1291.0,12.0],[1293.0,16.0],[1298.0,13.0],[1305.0,17.0],[1307.0,14.0],[1302.0,13.0],[1310.0,8.0],[1312.0,0.0],[1302.0,1.0],[1305.0,7.0],[1301.0,9.0],[1295.0,6.0],[1295.0,12.0],[1289.0,11.0],[1291.0,6.0],[1284.0,0.0],[1279.0,0.0],[1281.0,5.0],[1278.0,5.0],[1278.0,2.0],[1273.0,3.0],[1272.0,0.0],[1255.0,0.0],[1253.0,4.0],[1252.0,0.0],[1243.0,0.0],[1241.0,5.0],[1236.0,0.0],[1184.0,0.0]]]}},{"type":"Feature","properties":{"class":2},"geometry":{"type":"Polygon","coordinates":[[[1259.0,132.0],[1254.0,137.0],[1220.0,135.0],[1210.0,140.0],[1211.0,145.0],[1207.0,144.0],[1197.0,151.0],[1196.0,158.0],[1203.0,181.0],[1207.0,180.0],[1207.0,184.0],[1202.0,185.0],[1207.0,187.0],[1203.0,192.0],[1211.0,199.0],[1212.0,209.0],[1217.0,206.0],[1219.0,195.0],[1222.0,198.0],[1226.0,194.0],[1222.0,188.0],[1226.0,187.0],[1229.0,190.0],[1240.0,185.0],[1244.0,188.0],[1239.0,195.0],[1244.0,203.0],[1243.0,209.0],[1256.0,210.0],[1253.0,221.0],[1266.0,219.0],[1271.0,223.0],[1270.0,226.0],[1259.0,227.0],[1262.0,237.0],[1257.0,237.0],[1260.0,238.0],[1261.0,247.0],[1256.0,247.0],[1260.0,252.0],[1255.0,261.0],[1255.0,268.0],[1246.0,275.0],[1248.0,277.0],[1244.0,278.0],[1240.0,285.0],[1242.0,290.0],[1259.0,300.0],[1265.0,294.0],[1262.0,303.0],[1275.0,314.0],[1275.0,317.0],[1268.0,317.0],[1268.0,312.0],[1265.0,313.0],[1266.0,321.0],[1263.0,321.0],[1262.0,329.0],[1255.0,328.0],[1251.0,336.0],[1258.0,331.0],[1260.0,333.0],[1249.0,341.0],[1249.0,350.0],[1245.0,354.0],[1253.0,355.0],[1258.0,360.0],[1273.0,360.0],[1274.0,363.0],[1278.0,363.0],[1279.0,358.0],[1273.0,351.0],[1282.0,346.0],[1282.0,335.0],[1287.0,336.0],[1283.0,330.0],[1291.0,332.0],[1286.0,327.0],[1289.0,324.0],[1289.0,313.0],[1286.0,313.0],[1286.0,300.0],[1277.0,304.0],[1278.0,298.0],[1282.0,299.0],[1281.0,296.0],[1285.0,292.0],[1291.0,294.0],[1294.0,291.0],[1294.0,280.0],[1303.0,275.0],[1318.0,281.0],[1304.0,285.0],[1312.0,280.0],[1299.0,279.0],[1299.0,284.0],[1305.0,290.0],[1328.0,282.0],[1327.0,277.0],[1322.0,278.0],[1325.0,276.0],[1322.0,264.0],[1335.0,260.0],[1329.0,261.0],[1329.0,256.0],[1322.0,255.0],[1317.0,263.0],[1316.0,252.0],[1335.0,251.0],[1337.0,248.0],[1331.0,246.0],[1335.0,240.0],[1328.0,240.0],[1328.0,237.0],[1333.0,234.0],[1326.0,233.0],[1326.0,230.0],[1330.0,229.0],[1323.0,226.0],[1321.0,218.0],[1318.0,228.0],[1324.0,228.0],[1325.0,231.0],[1320.0,231.0],[1316.0,242.0],[1305.0,249.0],[1305.0,252.0],[1308.0,252.0],[1309.0,263.0],[1304.0,261.0],[1302.0,266.0],[1293.0,266.0],[1299.0,261.0],[1297.0,258.0],[1288.0,262.0],[1292.0,266.0],[1287.0,265.0],[1286.0,257.0],[1297.0,252.0],[1301.0,244.0],[1305.0,244.0],[1311.0,237.0],[1307.0,216.0],[1298.0,213.0],[1296.0,219.0],[1292.0,219.0],[1297.0,222.0],[1297.0,234.0],[1280.0,233.0],[1281.0,238.0],[1285.0,238.0],[1283.0,242.0],[1289.0,246.0],[1280.0,244.0],[1272.0,251.0],[1269.0,249.0],[1267.0,237.0],[1272.0,236.0],[1272.0,226.0],[1275.0,223.0],[1272.0,219.0],[1265.0,218.0],[1263.0,213.0],[1270.0,210.0],[1271.0,204.0],[1267.0,204.0],[1269.0,207.0],[1265.0,208.0],[1266.0,197.0],[1256.0,194.0],[1271.0,187.0],[1274.0,199.0],[1272.0,218.0],[1278.0,218.0],[1276.0,222.0],[1279.0,223.0],[1286.0,213.0],[1284.0,209.0],[1293.0,206.0],[1296.0,198.0],[1295.0,203.0],[1302.0,202.0],[1304.0,192.0],[1312.0,188.0],[1306.0,175.0],[1299.0,175.0],[1293.0,184.0],[1288.0,182.0],[1290.0,176.0],[1280.0,175.0],[1277.0,175.0],[1278.0,179.0],[1255.0,175.0],[1257.0,180.0],[1254.0,182.0],[1252.0,174.0],[1233.0,181.0],[1233.0,187.0],[1223.0,184.0],[1230.0,173.0],[1239.0,169.0],[1244.0,169.0],[1245.0,172.0],[1249.0,169.0],[1288.0,171.0],[1293.0,170.0],[1296.0,163.0],[1300.0,163.0],[1298.0,167.0],[1302.0,167.0],[1306.0,161.0],[1316.0,161.0],[1316.0,154.0],[1312.0,149.0],[1298.0,151.0],[1297.0,147.0],[1293.0,147.0],[1285.0,154.0],[1287.0,144.0],[1282.0,144.0],[1279.0,137.0],[1284.0,138.0],[1287.0,134.0],[1269.0,140.0],[1266.0,138.0],[1269.0,136.0],[1268.0,133.0],[1260.0,135.0],[1259.0,132.0]]]}},{"type":"Feature","properties":{"class":2},"geometry":{"type":"Polygon","coordinates":[[[1190.0,265.0],[1173.0,271.0],[1166.0,289.0],[1171.0,296.0],[1191.0,296.0],[1192.0,299.0],[1187.0,297.0],[1176.0,300.0],[1178.0,303.0],[1182.0,302.0],[1188.0,311.0],[1191.0,311.0],[1192.0,303.0],[1204.0,307.0],[1203.0,312.0],[1200.0,310.0],[1203.0,317.0],[1199.0,319.0],[1201.0,326.0],[1198.0,341.0],[1201.0,336.0],[1206.0,340.0],[1206.0,334.0],[1214.0,334.0],[1215.0,341.0],[1212.0,343.0],[1216.0,344.0],[1219.0,341.0],[1219.0,347.0],[1227.0,347.0],[1228.0,344.0],[1223.0,344.0],[1223.0,340.0],[1233.0,342.0],[1234.0,339.0],[1239.0,339.0],[1242.0,331.0],[1247.0,329.0],[1252.0,311.0],[1258.0,308.0],[1258.0,302.0],[1252.0,299.0],[1255.0,305.0],[1251.0,305.0],[1248.0,298.0],[1236.0,293.0],[1234.0,298.0],[1229.0,298.0],[1236.0,290.0],[1235.0,283.0],[1230.0,283.0],[1230.0,287.0],[1223.0,284.0],[1225.0,290.0],[1223.0,287.0],[1211.0,287.0],[1209.0,315.0],[1207.0,321.0],[1204.0,322.0],[1209.0,281.0],[1205.0,278.0],[1197.0,280.0],[1193.0,274.0],[1194.0,270.0],[1188.0,272.0],[1187.0,268.0],[1190.0,265.0]]]}},{"type":"Feature","properties":{"class":2},"geometry":{"type":"Polygon","coordinates":[[[1153.0,313.0],[1132.0,322.0],[1132.0,338.0],[1143.0,341.0],[1149.0,339.0],[1153.0,331.0],[1164.0,334.0],[1169.0,324.0],[1178.0,322.0],[1181.0,325.0],[1188.0,320.0],[1186.0,313.0],[1175.0,314.0],[1173.0,317.0],[1166.0,313.0],[1162.0,318.0],[1153.0,313.0]]]}},{"type":"Feature","properties":{"class":2},"geometry":{"type":"Polygon","coordinates":[[[1047.0,296.0],[1045.0,299.0],[1041.0,298.0],[1040.0,306.0],[1045.0,306.0],[1049.0,299.0],[1055.0,303.0],[1062.0,300.0],[1062.0,297.0],[1047.0,296.0]]]}},{"type":"Feature","properties":{"class":2},"geometry":{"type":"Polygon","coordinates":[[[1054.0,318.0],[1054.0,321.0],[1050.0,322.0],[1053.0,326.0],[1057.0,323.0],[1057.0,318.0],[1054.0,318.0]]]}},{"type":"Feature","properties":{"class":2},"geometry":{"type":"Polygon","coordinates":[[[1034.0,276.0],[1036.0,280.0],[1031.0,279.0],[1027.0,283.0],[1017.0,279.0],[1018.0,285.0],[1013.0,287.0],[1015.0,304.0],[1012.0,304.0],[1012.0,309.0],[1017.0,311.0],[1015.0,305.0],[1020.0,304.0],[1018.0,308.0],[1021.0,308.0],[1021.0,311.0],[1018.0,314.0],[1026.0,314.0],[1019.0,317.0],[1025.0,321.0],[1020.0,322.0],[1019.0,327.0],[1024.0,329.0],[1034.0,327.0],[1033.0,324.0],[1040.0,319.0],[1037.0,327.0],[1046.0,329.0],[1048.0,327.0],[1048.0,323.0],[1054.0,323.0],[1056.0,320.0],[1053.0,315.0],[1057.0,314.0],[1062.0,318.0],[1064.0,312.0],[1083.0,304.0],[1083.0,288.0],[1079.0,288.0],[1081.0,292.0],[1075.0,294.0],[1075.0,292.0],[1068.0,289.0],[1068.0,285.0],[1065.0,284.0],[1060.0,286.0],[1061.0,290.0],[1058.0,292.0],[1051.0,277.0],[1042.0,277.0],[1040.0,279.0],[1039.0,276.0],[1034.0,276.0]]]}},{"type":"Feature","properties":{"class":1},"geometry":{"type":"Polygon","coordinates":[[[176.0,364.0],[172.0,370.0],[173.0,378.0],[169.0,388.0],[175.0,389.0],[180.0,396.0],[186.0,393.0],[182.0,391.0],[183.0,384.0],[180.0,380.0],[178.0,380.0],[179.0,365.0],[176.0,364.0]]]}},{"type":"Feature","properties":{"class":1},"geometry":{"type":"Polygon","coordinates":[[[271.0,245.0],[263.0,249.0],[264.0,253.0],[271.0,249.0],[271.0,245.0]]]}},{"type":"Feature","properties":{"class":1},"geometry":{"type":"Polygon","coordinates":[[[635.0,87.0],[632.0,88.0],[635.0,92.0],[626.0,100.0],[626.0,108.0],[617.0,106.0],[621.0,113.0],[620.0,120.0],[624.0,122.0],[636.0,122.0],[636.0,120.0],[624.0,119.0],[623.0,115.0],[646.0,120.0],[648.0,116.0],[642.0,114.0],[653.0,113.0],[650.0,112.0],[650.0,108.0],[654.0,100.0],[650.0,104.0],[650.0,97.0],[646.0,97.0],[642.0,93.0],[638.0,93.0],[635.0,87.0]]]}},{"type":"Feature","properties":{"class":1},"geometry":{"type":"Polygon","coordinates":[[[341.0,11.0],[340.0,18.0],[344.0,22.0],[344.0,12.0],[341.0,11.0]]]}},{"type":"Feature","properties":{"class":1},"geometry":{"type":"Polygon","coordinates":[[[736.0,660.0],[737.0,664.0],[729.0,667.0],[731.0,673.0],[725.0,672.0],[727.0,677.0],[724.0,678.0],[728.0,680.0],[730.0,676.0],[728.0,683.0],[732.0,684.0],[733.0,675.0],[736.0,674.0],[737.0,683.0],[732.0,685.0],[732.0,689.0],[737.0,688.0],[740.0,684.0],[744.0,672.0],[736.0,660.0]]]}},{"type":"Feature","properties":{"class":1},"geometry":{"type":"Polygon","coordinates":[[[762.0,590.0],[759.0,593.0],[761.0,597.0],[753.0,594.0],[756.0,598.0],[753.0,604.0],[758.0,605.0],[757.0,607.0],[762.0,608.0],[759.0,603.0],[765.0,599.0],[775.0,606.0],[778.0,603.0],[785.0,604.0],[778.0,601.0],[777.0,596.0],[773.0,599.0],[768.0,597.0],[763.0,597.0],[765.0,591.0],[769.0,590.0],[762.0,590.0]]]}},{"type":"Feature","properties":{"class":1},"geometry":{"type":"Polygon","coordinates":[[[539.0,712.0],[539.0,722.0],[548.0,729.0],[546.0,726.0],[551.0,725.0],[539.0,712.0]]]}},{"type":"Feature","properties":{"class":1},"geometry":{"type":"Polygon","coordinates":[[[418.0,1075.0],[419.0,1078.0],[416.0,1080.0],[409.0,1079.0],[413.0,1081.0],[415.0,1088.0],[418.0,1088.0],[415.0,1084.0],[420.0,1080.0],[421.0,1088.0],[427.0,1083.0],[431.0,1083.0],[427.0,1088.0],[433.0,1087.0],[434.0,1076.0],[423.0,1078.0],[418.0,1075.0]]]}},{"type":"Feature","properties":{"class":1},"geometry":{"type":"Polygon","coordinates":[[[65.0,952.0],[56.0,954.0],[60.0,956.0],[57.0,958.0],[59.0,963.0],[56.0,962.0],[53.0,969.0],[68.0,963.0],[68.0,960.0],[65.0,960.0],[68.0,959.0],[65.0,952.0]]]}},{"type":"Feature","properties":{"class":1},"geometry":{"type":"Polygon","coordinates":[[[34.0,980.0],[34.0,991.0],[38.0,992.0],[40.0,986.0],[37.0,983.0],[42.0,984.0],[42.0,980.0],[34.0,980.0]]]}},{"type":"Feature","properties":{"class":1},"geometry":{"type":"Polygon","coordinates":[[[1451.0,188.0],[1434.0,193.0],[1430.0,190.0],[1429.0,193.0],[1425.0,192.0],[1426.0,198.0],[1431.0,198.0],[1433.0,202.0],[1436.0,200.0],[1440.0,206.0],[1451.0,204.0],[1438.0,200.0],[1438.0,196.0],[1459.0,204.0],[1457.0,189.0],[1451.0,188.0]]]}},{"type":"Feature","properties":{"class":1},"geometry":{"type":"Polygon","coordinates":[[[1225.0,257.0],[1222.0,260.0],[1211.0,261.0],[1205.0,266.0],[1207.0,274.0],[1213.0,281.0],[1217.0,282.0],[1217.0,278.0],[1225.0,277.0],[1228.0,280.0],[1236.0,279.0],[1237.0,275.0],[1232.0,273.0],[1235.0,269.0],[1234.0,263.0],[1225.0,257.0]]]}},{"type":"Feature","properties":{"class":1},"geometry":{"type":"Polygon","coordinates":[[[1142.0,220.0],[1142.0,224.0],[1137.0,226.0],[1148.0,230.0],[1152.0,223.0],[1142.0,220.0]]]}},{"type":"Feature","properties":{"class":1},"geometry":{"type":"Polygon","coordinates":[[[1249.0,1061.0],[1245.0,1067.0],[1245.0,1076.0],[1250.0,1082.0],[1257.0,1084.0],[1255.0,1087.0],[1277.0,1088.0],[1278.0,1081.0],[1279.0,1085.0],[1285.0,1083.0],[1288.0,1063.0],[1276.0,1070.0],[1259.0,1062.0],[1249.0,1061.0]]]}},{"type":"Feature","properties":{"class":1},"geometry":{"type":"Polygon","coordinates":[[[630.0,268.0],[625.0,271.0],[625.0,280.0],[629.0,278.0],[636.0,281.0],[641.0,274.0],[637.0,275.0],[637.0,272.0],[630.0,268.0]]]}},{"type":"Feature","properties":{"class":1},"geometry":{"type":"Polygon","coordinates":[[[436.0,227.0],[423.0,229.0],[422.0,233.0],[420.0,230.0],[417.0,230.0],[415.0,236.0],[422.0,239.0],[425.0,243.0],[436.0,244.0],[443.0,234.0],[442.0,229.0],[439.0,227.0],[437.0,229.0],[436.0,227.0]]]}}]}